{"type":"FeatureCollection","features":[{"type":"Feature","properties":{},"geometry":{"type":"MultiPolygon","coordinates":[[[[-2.44642,-3.60609],[-2.45183,-3.61347],[-2.45768,-3.61544],[-2.46378,-3.60868],[-2.50029,-3.635],[-2.51852,-3.64483],[-2.54105,-3.64561],[-2.57989,-3.62536],[-2.59859,-3.62401],[-2.60094,-3.64765],[-2.6075,-3.64955],[-2.62019,-3.65744],[-2.626,-3.65808],[-2.6329,-3.65307],[-2.63251,-3.64713],[-2.63119,-3.64072],[-2.63517,-3.63451],[-2.63836,-3.63336],[-2.65028,-3.63281],[-2.65504,-3.63035],[-2.65472,-3.62663],[-2.65311,-3.62237],[-2.65398,-3.61807],[-2.68073,-3.57858],[-2.69327,-3.56706],[-2.71773,-3.55027],[-2.7251,-3.54868],[-2.73232,-3.5494],[-2.73949,-3.54816],[-2.74661,-3.54055],[-2.75028,-3.53127],[-2.74922,-3.52596],[-2.74654,-3.5215],[-2.74583,-3.51454],[-2.74849,-3.5066],[-2.7579,-3.47843],[-2.77719,-3.47075],[-2.8342,-3.47818],[-2.89237,-3.47048],[-2.91993,-3.45997],[-2.94448,-3.43956],[-2.95288,-3.42869],[-2.96485,-3.42457],[-2.99004,-3.4201],[-2.99529,-3.41524],[-3.00699,-3.40689],[-3.01322,-3.40406],[-3.04081,-3.40515],[-3.06365,-3.38442],[-3.08805,-3.36916],[-3.13006,-3.35934],[-3.14337,-3.35026],[-3.15495,-3.33537],[-3.1575,-3.32186],[-3.15086,-3.30914],[-3.13485,-3.29683],[-3.15111,-3.29156],[-3.16784,-3.29686],[-3.1812,-3.31037],[-3.18736,-3.33005],[-3.19058,-3.35604],[-3.19756,-3.36915],[-3.21023,-3.37255],[-3.23017,-3.36974],[-3.24782,-3.36395],[-3.26348,-3.35373],[-3.27589,-3.33798],[-3.28384,-3.31588],[-3.27736,-3.30781],[-3.24543,-3.27712],[-3.23549,-3.26522],[-3.22259,-3.23435],[-3.21245,-3.19513],[-3.21321,-3.15855],[-3.23293,-3.1358],[-3.24166,-3.1352],[-3.24989,-3.13763],[-3.25806,-3.13861],[-3.28754,-3.12096],[-3.30981,-3.1129],[-3.32423,-3.11156],[-3.3355,-3.11754],[-3.34224,-3.1342],[-3.34689,-3.14268],[-3.35511,-3.1468],[-3.36437,-3.14745],[-3.37217,-3.1458],[-3.38081,-3.14119],[-3.38416,-3.13643],[-3.38847,-3.11909],[-3.38916,-3.1103],[-3.38677,-3.10435],[-3.38637,-3.09965],[-3.39326,-3.09408],[-3.40668,-3.08668],[-3.41329,-3.08552],[-3.42845,-3.09091],[-3.44423,-3.09206],[-3.45302,-3.09574],[-3.46096,-3.09658],[-3.46246,-3.09271],[-3.46416,-3.08831],[-3.46544,-3.0688],[-3.47376,-3.05593],[-3.49401,-3.04451],[-3.49346,-3.03236],[-3.49165,-3.01143],[-3.48922,-2.99996],[-3.48734,-3.0015],[-3.48692,-3.00185],[-3.47632,-3.01058],[-3.47039,-3.0035],[-3.45672,-2.99871],[-3.39168,-2.99214],[-3.37341,-2.96916],[-3.35666,-2.96136],[-3.34249,-2.95223],[-3.33566,-2.94401],[-3.31815,-2.91405],[-3.31438,-2.90305],[-3.30757,-2.89548],[-3.27689,-2.86001],[-3.27069,-2.8489],[-3.24764,-2.8203],[-3.24091,-2.78927],[-3.22026,-2.73358],[-3.18146,-2.57205],[-3.16115,-2.516],[-3.12875,-2.38835],[-3.06703,-2.10907],[-3.03987,-1.97045],[-3.03646,-1.9449],[-3.03165,-1.90888],[-3.03261,-1.89416],[-3.03718,-1.86562],[-3.03596,-1.8572],[-3.01565,-1.83081],[-3.01253,-1.82464],[-3.00997,-1.81271],[-2.99479,-1.76768],[-2.97979,-1.75092],[-2.96193,-1.75117],[-2.91895,-1.76423],[-2.89372,-1.76176],[-2.87878,-1.75224],[-2.87777,-1.7371],[-2.8944,-1.71771],[-2.88469,-1.71821],[-2.89092,-1.70363],[-2.94196,-1.65038],[-2.9495,-1.64669],[-2.95271,-1.64453],[-2.95556,-1.64129],[-2.95879,-1.63893],[-2.96369,-1.63912],[-2.96689,-1.642],[-2.9685,-1.64622],[-2.96964,-1.65014],[-2.9714,-1.65175],[-2.97649,-1.66083],[-3.01109,-1.70792],[-3.02149,-1.75141],[-3.02909,-1.77506],[-3.03436,-1.786],[-2.96484,-1.2969],[-2.9272,-1.14079],[-2.90358,-0.93134],[-2.89842,-0.91686],[-2.87201,-0.86958],[-2.86118,-0.85466],[-2.84969,-0.85099],[-2.84247,-0.85502],[-2.84105,-0.8596],[-2.84181,-0.86708],[-2.84281,-0.87829],[-2.84495,-0.88147],[-2.84673,-0.88666],[-2.847,-0.89197],[-2.84511,-0.89743],[-2.83835,-0.90977],[-2.83262,-0.91783],[-2.78754,-0.95681],[-2.75879,-0.97495],[-2.74808,-0.97886],[-2.66771,-1.07767],[-2.64944,-1.10784],[-2.64266,-1.13831],[-2.6418,-1.15826],[-2.63422,-1.1958],[-2.62546,-1.28885],[-2.62313,-1.30038],[-2.60201,-1.35931],[-2.57944,-1.39188],[-2.55356,-1.41948],[-2.5315,-1.43385],[-2.52558,-1.44119],[-2.5203,-1.45398],[-2.51965,-1.46327],[-2.52242,-1.47911],[-2.52249,-1.49995],[-2.52034,-1.52077],[-2.51516,-1.53721],[-2.50592,-1.54494],[-2.50813,-1.53106],[-2.50951,-1.50261],[-2.51325,-1.49013],[-2.50533,-1.46355],[-2.51242,-1.44158],[-2.5274,-1.42481],[-2.54362,-1.41376],[-2.52184,-1.4158],[-2.50373,-1.42068],[-2.48783,-1.42952],[-2.4724,-1.44357],[-2.48882,-1.41144],[-2.51631,-1.39623],[-2.54653,-1.38486],[-2.57079,-1.36417],[-2.58246,-1.33763],[-2.58995,-1.30563],[-2.60774,-1.11373],[-2.60776,-1.11347],[-2.61513,-1.07452],[-2.63555,-1.01066],[-2.64829,-0.98205],[-2.66279,-0.95637],[-2.69343,-0.9175],[-2.78907,-0.84043],[-2.79122,-0.83605],[-2.79306,-0.81718],[-2.79728,-0.8127],[-2.81995,-0.80301],[-2.85545,-0.76371],[-2.87604,-0.75411],[-2.88908,-0.75066],[-2.90024,-0.74288],[-2.90957,-0.73235],[-2.91747,-0.72064],[-2.92993,-0.71006],[-2.95475,-0.71414],[-2.967,-0.70836],[-2.95129,-0.63957],[-2.95072,-0.6268],[-2.90364,-0.61504],[-2.89006,-0.61636],[-2.84838,-0.67117],[-2.84071,-0.67685],[-2.83279,-0.68514],[-2.78507,-0.71042],[-2.79984,-0.69187],[-2.85989,-0.63798],[-2.8768,-0.61547],[-2.88004,-0.60628],[-2.88045,-0.59467],[-2.88276,-0.57964],[-2.88662,-0.56496],[-2.892,-0.55428],[-2.88405,-0.55055],[-2.8789,-0.54488],[-2.87502,-0.53911],[-2.87147,-0.53487],[-2.8633,-0.5283],[-2.85217,-0.52226],[-2.84567,-0.52166],[-2.84016,-0.52316],[-2.83559,-0.52104],[-2.83208,-0.50964],[-2.83243,-0.49926],[-2.83599,-0.48871],[-2.84052,-0.47982],[-2.8446,-0.47424],[-2.84059,-0.47128],[-2.83324,-0.46402],[-2.8296,-0.46144],[-2.84059,-0.45323],[-2.84756,-0.43946],[-2.85568,-0.40611],[-2.84163,-0.417],[-2.83003,-0.41834],[-2.8204,-0.41054],[-2.81188,-0.39411],[-2.81157,-0.38799],[-2.81425,-0.38338],[-2.81796,-0.37856],[-2.82235,-0.37467],[-2.8353,-0.36905],[-2.83733,-0.36081],[-2.83749,-0.35072],[-2.84184,-0.33692],[-2.84113,-0.32761],[-2.84186,-0.32375],[-2.84435,-0.32208],[-2.8531,-0.31857],[-2.85538,-0.31679],[-2.85925,-0.31191],[-2.86328,-0.30841],[-2.86298,-0.30416],[-2.85432,-0.29644],[-2.86985,-0.28331],[-2.87508,-0.28169],[-2.87779,-0.2796],[-2.87739,-0.27507],[-2.87623,-0.27029],[-2.87689,-0.26733],[-2.88057,-0.26637],[-2.89109,-0.26658],[-2.89816,-0.26401],[-2.90444,-0.26413],[-2.91029,-0.26264],[-2.91651,-0.25527],[-2.91682,-0.24688],[-2.91188,-0.23739],[-2.90456,-0.22933],[-2.89788,-0.22529],[-2.90059,-0.20604],[-2.89232,-0.19331],[-2.84318,-0.16618],[-2.83692,-0.15378],[-2.8371,-0.14572],[-2.83978,-0.13709],[-2.84092,-0.12288],[-2.84632,-0.11428],[-2.85481,-0.10074],[-2.88559,-0.09708],[-2.91203,-0.11112],[-2.91292,-0.14262],[-2.93122,-0.13652],[-2.94353,-0.11968],[-2.95509,-0.09999],[-2.96592,-0.09627],[-2.97282,-0.09467],[-2.99335,-0.0807],[-3.00821,-0.0663],[-3.01723,-0.06194],[-3.05451,-0.07157],[-3.07197,-0.06966],[-3.07826,-0.048],[-3.08091,-0.02264],[-3.09087,-0.00386],[-3.1061,0.00815],[-3.12478,0.01296],[-3.17074,0.01757],[-3.18888,0.02473],[-3.18232,0.03675],[-3.1929,0.0481],[-3.2292,0.05684],[-3.25106,0.07851],[-3.27022,0.08495],[-3.27852,0.0909],[-3.28303,0.09939],[-3.28943,0.12166],[-3.29532,0.13283],[-3.29588,0.12038],[-3.29287,0.10389],[-3.29247,0.09516],[-3.29568,0.09088],[-3.30193,0.09484],[-3.30784,0.10427],[-3.31867,0.17826],[-3.3146,0.19542],[-3.32531,0.20075],[-3.33005,0.21222],[-3.33241,0.22583],[-3.33594,0.23764],[-3.34549,0.25031],[-3.35547,0.26008],[-3.36308,0.27023],[-3.36844,0.29611],[-3.37707,0.30401],[-3.38837,0.30862],[-3.39955,0.31054],[-3.40502,0.31698],[-3.42268,0.35971],[-3.45822,0.402],[-3.47845,0.4186],[-3.49574,0.42581],[-3.50325,0.43281],[-3.50724,0.44869],[-3.5087,0.46787],[-3.50843,0.48497],[-3.50533,0.50642],[-3.50003,0.51632],[-3.48171,0.52791],[-3.48477,0.54226],[-3.47407,0.55215],[-3.44696,0.56664],[-3.43767,0.58114],[-3.42391,0.6163],[-3.41469,0.63345],[-3.40216,0.64169],[-3.40236,0.65862],[-3.40886,0.67673],[-3.41546,0.68874],[-3.42531,0.69986],[-3.46472,0.72546],[-3.54219,0.74443],[-3.56552,0.75936],[-3.55611,0.76488],[-3.5483,0.77124],[-3.54002,0.77639],[-3.51771,0.77809],[-3.51229,0.78123],[-3.50966,0.7892],[-3.50665,0.80385],[-3.50548,0.81741],[-3.51167,0.83347],[-3.51258,0.84863],[-3.51103,0.85959],[-3.50754,0.87226],[-3.50241,0.88389],[-3.49584,0.89196],[-3.47911,0.89799],[-3.41634,0.90041],[-3.41142,0.90376],[-3.40669,0.90578],[-3.40162,0.90631],[-3.39665,0.89916],[-3.39191,0.89414],[-3.35774,0.88279],[-3.34729,0.88246],[-3.35153,0.88948],[-3.34371,0.88887],[-3.33657,0.88627],[-3.33024,0.88164],[-3.3246,0.87478],[-3.33845,0.87565],[-3.33891,0.86827],[-3.31236,0.84612],[-3.2845,0.83883],[-3.27789,0.83375],[-3.26386,0.81663],[-3.24871,0.80871],[-3.21216,0.80529],[-3.22531,0.81523],[-3.2528,0.82254],[-3.26403,0.8329],[-3.28307,0.85855],[-3.30573,0.87988],[-3.32821,0.89551],[-3.34152,0.90089],[-3.35741,0.90352],[-3.36327,0.90616],[-3.37214,0.91648],[-3.39738,0.92565],[-3.49123,0.92518],[-3.51339,0.91353],[-3.51864,0.90647],[-3.52177,0.90017],[-3.52582,0.89417],[-3.53325,0.88815],[-3.55383,0.88357],[-3.57071,0.86883],[-3.58392,0.8645],[-3.59725,0.86564],[-3.60911,0.87144],[-3.61859,0.88124],[-3.6338,0.90156],[-3.64426,0.90862],[-3.65546,0.91085],[-3.66182,0.91096],[-3.66694,0.91017],[-3.67264,0.90584],[-3.67564,0.89929],[-3.67711,0.89328],[-3.67802,0.8905],[-3.69777,0.89243],[-3.75884,0.93022],[-3.75836,0.93702],[-3.74299,0.93363],[-3.71486,0.91771],[-3.6993,0.91923],[-3.68673,0.93212],[-3.69204,0.94583],[-3.70469,0.96014],[-3.71399,0.97486],[-3.71911,0.97274],[-3.72147,0.9714],[-3.72363,0.96939],[-3.72084,0.96187],[-3.72081,0.95784],[-3.7251,0.94837],[-3.73014,0.94872],[-3.72923,0.97763],[-3.73592,0.99344],[-3.76276,1.01364],[-3.70671,1.04216],[-3.69954,1.04121],[-3.69276,1.03769],[-3.68159,1.03472],[-3.68331,1.02931],[-3.68412,1.02928],[-3.68707,1.02765],[-3.68252,1.02111],[-3.67551,1.0282],[-3.65135,1.03964],[-3.64875,1.04614],[-3.65895,1.04891],[-3.67555,1.0505],[-3.68633,1.05568],[-3.6792,1.06935],[-3.68967,1.07752],[-3.69355,1.07822],[-3.70366,1.08004],[-3.71189,1.08602],[-3.70497,1.10459],[-3.71359,1.11817],[-3.70563,1.12437],[-3.66336,1.12373],[-3.63824,1.12892],[-3.6243,1.127],[-3.63502,1.13078],[-3.65341,1.12886],[-3.66576,1.12983],[-3.71582,1.15381],[-3.72635,1.15626],[-3.73521,1.15574],[-3.75779,1.14992],[-3.78306,1.15171],[-3.78938,1.15004],[-3.79351,1.14675],[-3.79767,1.14632],[-3.80416,1.15321],[-3.79388,1.15435],[-3.7815,1.16088],[-3.77066,1.17147],[-3.76455,1.1845],[-3.7757,1.175],[-3.78536,1.1741],[-3.79524,1.17578],[-3.80693,1.17384],[-3.80153,1.17232],[-3.7975,1.17008],[-3.79508,1.16612],[-3.7941,1.15933],[-3.81115,1.16031],[-3.81892,1.16274],[-3.82579,1.16844],[-3.82857,1.1447],[-3.83815,1.14002],[-3.86001,1.14978],[-3.87132,1.14983],[-3.90733,1.14025],[-3.92049,1.13991],[-3.93051,1.14175],[-3.93899,1.14677],[-3.94743,1.15619],[-3.94852,1.16006],[-3.95744,1.18038],[-3.95988,1.18158],[-3.96228,1.18709],[-3.9685,1.19069],[-3.97605,1.19256],[-3.97803,1.19376],[-3.97696,1.19507],[-3.97698,1.19996],[-3.98822,1.20528],[-3.97637,1.21257],[-3.95801,1.21124],[-3.94957,1.1905],[-3.94491,1.19016],[-3.94079,1.19515],[-3.93679,1.19705],[-3.93219,1.19516],[-3.92654,1.1888],[-3.92532,1.19514],[-3.92038,1.20943],[-3.91083,1.19623],[-3.89415,1.18943],[-3.87568,1.18988],[-3.86069,1.19823],[-3.86521,1.2054],[-3.83628,1.2401],[-3.83182,1.25838],[-3.84557,1.27912],[-3.84601,1.27296],[-3.84004,1.26577],[-3.83963,1.25931],[-3.84398,1.25462],[-3.85253,1.25292],[-3.84344,1.24542],[-3.84679,1.2409],[-3.84988,1.23897],[-3.85773,1.23901],[-3.86077,1.24484],[-3.89288,1.26892],[-3.87896,1.26583],[-3.86586,1.26011],[-3.87298,1.27223],[-3.8806,1.278],[-3.90113,1.28317],[-3.89233,1.27633],[-3.90673,1.27071],[-3.94177,1.2696],[-3.94919,1.2631],[-3.95599,1.25164],[-3.96965,1.24651],[-3.9923,1.24271],[-3.99183,1.24891],[-3.98729,1.24856],[-3.98673,1.25597],[-3.99561,1.25509],[-3.99784,1.25363],[-4.00104,1.2496],[-4.00564,1.24994],[-4.00729,1.26228],[-4.00725,1.27242],[-4.00453,1.27995],[-3.99843,1.28421],[-4.00809,1.28531],[-4.01476,1.29106],[-4.01849,1.30063],[-4.01931,1.31307],[-4.02434,1.31345],[-4.024,1.30561],[-4.02177,1.29294],[-4.02136,1.28594],[-4.02317,1.26214],[-4.02151,1.252],[-4.01635,1.24053],[-4.00957,1.22996],[-4.00308,1.22243],[-4.00529,1.21572],[-4.00661,1.21293],[-4.00871,1.20918],[-4.01025,1.21292],[-4.01645,1.22344],[-4.02236,1.21998],[-4.02794,1.22683],[-4.03433,1.2377],[-4.04283,1.24653],[-4.03987,1.23303],[-4.04411,1.22717],[-4.05011,1.23023],[-4.05232,1.24351],[-4.05359,1.25899],[-4.05803,1.25783],[-4.06123,1.24696],[-4.05819,1.23341],[-4.06772,1.23483],[-4.07156,1.23651],[-4.07564,1.24158],[-4.0977,1.23167],[-4.10849,1.23153],[-4.11747,1.23797],[-4.11293,1.24042],[-4.10818,1.24409],[-4.11426,1.25067],[-4.12168,1.25625],[-4.12926,1.25643],[-4.13576,1.24623],[-4.13284,1.24453],[-4.13025,1.24095],[-4.12709,1.23871],[-4.13701,1.20581],[-4.13543,1.17706],[-4.12609,1.15312],[-4.11246,1.13448],[-4.12159,1.13567],[-4.13545,1.14065],[-4.14007,1.13661],[-4.14427,1.13694],[-4.15018,1.16623],[-4.15055,1.17534],[-4.14825,1.18612],[-4.14063,1.20242],[-4.13813,1.21575],[-4.138,1.23907],[-4.14137,1.25664],[-4.14774,1.27033],[-4.15652,1.28205],[-4.1626,1.28664],[-4.16991,1.29043],[-4.17595,1.29482],[-4.1781,1.30109],[-4.17561,1.31389],[-4.16532,1.34114],[-4.113,1.36064],[-4.11519,1.36606],[-4.11618,1.37176],[-4.1162,1.37888],[-4.11543,1.3888],[-4.1188,1.38686],[-4.12691,1.38436],[-4.13019,1.3825],[-4.12896,1.40354],[-4.12802,1.41026],[-4.1322,1.41059],[-4.13826,1.40047],[-4.14533,1.4029],[-4.15398,1.40822],[-4.16477,1.40695],[-4.15566,1.40257],[-4.14984,1.39478],[-4.14641,1.38384],[-4.14464,1.36994],[-4.14803,1.36947],[-4.14874,1.3688],[-4.14887,1.36718],[-4.15014,1.36353],[-4.15766,1.36998],[-4.16265,1.36671],[-4.16843,1.36073],[-4.17814,1.35889],[-4.17578,1.35569],[-4.16967,1.34462],[-4.1794,1.34078],[-4.18333,1.33176],[-4.18619,1.32275],[-4.19265,1.31906],[-4.19731,1.32338],[-4.21595,1.34827],[-4.2327,1.35454],[-4.26158,1.36491],[-4.27948,1.36696],[-4.26695,1.37092],[-4.25511,1.36867],[-4.22917,1.35674],[-4.22868,1.36289],[-4.23879,1.37021],[-4.25042,1.37538],[-4.27838,1.38056],[-4.27779,1.38797],[-4.27175,1.38809],[-4.26874,1.39005],[-4.26757,1.39496],[-4.26683,1.40419],[-4.26422,1.40793],[-4.25294,1.40527],[-4.24864,1.40615],[-4.23825,1.42752],[-4.23124,1.43885],[-4.22212,1.44505],[-4.22154,1.45241],[-4.23748,1.43642],[-4.25728,1.42041],[-4.27864,1.41003],[-4.293,1.40781],[-4.28809,1.4044],[-4.28425,1.39985],[-4.28146,1.3945],[-4.28196,1.3883],[-4.33811,1.37898],[-4.34742,1.38275],[-4.34988,1.38841],[-4.3678,1.41584],[-4.37573,1.43698],[-4.38243,1.44625],[-4.38492,1.45078],[-4.38686,1.45844],[-4.39474,1.4529],[-4.40569,1.45405],[-4.42887,1.46193],[-4.44629,1.46258],[-4.45179,1.46385],[-4.45682,1.46737],[-4.4637,1.47667],[-4.46665,1.4788],[-4.49215,1.47965],[-4.50466,1.48536],[-4.50914,1.49943],[-4.51469,1.50267],[-4.55132,1.48601],[-4.56023,1.49639],[-4.57451,1.49734],[-4.58978,1.49548],[-4.60183,1.49779],[-4.60247,1.50119],[-4.6132,1.52613],[-4.61743,1.53175],[-4.62194,1.53606],[-4.62376,1.54221],[-4.62,1.5535],[-4.62578,1.55425],[-4.62982,1.55643],[-4.63766,1.56246],[-4.6388,1.57348],[-4.6501,1.58903],[-4.66689,1.60261],[-4.68427,1.60766],[-4.68003,1.58678],[-4.68621,1.5722],[-4.70268,1.557],[-4.71593,1.56197],[-4.70926,1.5608],[-4.70382,1.56179],[-4.69955,1.56597],[-4.69643,1.5745],[-4.70481,1.57223],[-4.71151,1.5725],[-4.71674,1.57072],[-4.72094,1.56241],[-4.73843,1.57976],[-4.74701,1.58415],[-4.75772,1.58618],[-4.76544,1.59152],[-4.7729,1.60401],[-4.77807,1.62022],[-4.77864,1.63658],[-4.78675,1.62541],[-4.78417,1.61005],[-4.7764,1.59565],[-4.76896,1.58719],[-4.76951,1.58104],[-4.77798,1.58112],[-4.78479,1.57933],[-4.79123,1.57547],[-4.79859,1.56941],[-4.80923,1.59239],[-4.81883,1.59065],[-4.82185,1.57862],[-4.81274,1.57069],[-4.81494,1.5671],[-4.81747,1.56428],[-4.81804,1.55809],[-4.79977,1.55643],[-4.80045,1.54895],[-4.82409,1.52998],[-4.83492,1.52478],[-4.85184,1.52155],[-4.94959,1.53538],[-4.9485,1.54287],[-4.94868,1.55683],[-4.94705,1.56247],[-4.94256,1.5647],[-4.93627,1.56407],[-4.93052,1.56479],[-4.92736,1.57131],[-4.92802,1.58923],[-4.9356,1.61563],[-4.93959,1.64332],[-4.94789,1.66237],[-4.97584,1.70667],[-5.03051,1.75901],[-5.03684,1.76324],[-5.04632,1.75856],[-5.05547,1.74937],[-5.06461,1.74547],[-5.08269,1.76691],[-5.09399,1.77009],[-5.11663,1.77093],[-5.16532,1.79001],[-5.16056,1.79309],[-5.1566,1.79882],[-5.15319,1.80485],[-5.14844,1.81173],[-5.14766,1.8152],[-5.14643,1.81887],[-5.14378,1.82216],[-5.14152,1.82207],[-5.13685,1.81553],[-5.13312,1.81366],[-4.9143,1.84125],[-4.87732,1.82615],[-4.86705,1.82935],[-4.86338,1.83619],[-4.85434,1.86365],[-4.85628,1.87517],[-4.86458,1.88809],[-4.86594,1.89522],[-4.86721,1.91769],[-4.87532,1.92761],[-4.9029,1.93654],[-4.90784,1.94031],[-4.91158,1.94555],[-4.91397,1.95173],[-4.91497,1.95822],[-4.93222,1.9536],[-4.96545,1.97962],[-4.98453,1.97506],[-4.99585,1.9584],[-5.00731,1.93661],[-5.02085,1.91886],[-5.03858,1.91464],[-5.03074,1.93518],[-5.02681,1.94145],[-5.0332,1.95357],[-5.03647,1.96241],[-5.0374,1.96984],[-5.03297,1.98128],[-5.02742,1.98515],[-5.02455,1.98887],[-5.02815,1.99942],[-5.03605,2.0023],[-5.07574,2.0078],[-5.07297,2.01805],[-5.07376,2.02816],[-5.06612,2.03146],[-5.06066,2.03044],[-5.05536,2.02773],[-5.04826,2.0257],[-5.03955,2.02784],[-5.03739,2.03444],[-5.03845,2.0416],[-5.03926,2.04535],[-5.02449,2.07517],[-5.01525,2.08245],[-5.00477,2.07622],[-5.01695,2.04035],[-4.99944,2.02983],[-4.94,2.02839],[-4.9336,2.02436],[-4.92955,2.01966],[-4.9248,2.01546],[-4.91633,2.01316],[-4.90821,2.01313],[-4.87607,2.01939],[-4.83128,2.01826],[-4.83588,2.01448],[-4.84021,2.01305],[-4.84997,2.01379],[-4.83683,2.00711],[-4.78146,2.01369],[-4.78078,2.02113],[-4.80169,2.02157],[-4.80912,2.02609],[-4.81081,2.03811],[-4.81765,2.03091],[-4.82701,2.0292],[-4.83496,2.03328],[-4.8377,2.04372],[-4.84196,2.04293],[-4.87047,2.04362],[-4.86407,2.05212],[-4.86106,2.05412],[-4.85523,2.0559],[-4.85452,2.06004],[-4.85106,2.06396],[-4.84412,2.06805],[-4.83004,2.08097],[-4.84124,2.08181],[-4.8573,2.07228],[-4.86799,2.07018],[-4.86736,2.07697],[-4.86246,2.07651],[-4.86177,2.08391],[-4.86667,2.08437],[-4.86917,2.07971],[-4.8738,2.075],[-4.87662,2.07098],[-4.8861,2.07615],[-4.90838,2.06359],[-4.92349,2.06228],[-4.92128,2.06586],[-4.92059,2.0662],[-4.91798,2.068],[-4.92227,2.07525],[-4.92837,2.07028],[-4.93636,2.06695],[-4.94549,2.06533],[-4.95472,2.06522],[-4.95414,2.07141],[-4.91197,2.11368],[-4.90411,2.11894],[-4.83729,2.15064],[-4.84941,2.14821],[-4.87122,2.13825],[-4.88488,2.13455],[-4.93028,2.13139],[-4.95163,2.12451],[-4.99593,2.10213],[-5.02911,2.09728],[-5.04981,2.08911],[-5.06292,2.08867],[-5.07422,2.09245],[-5.09635,2.10407],[-5.109,2.10746],[-5.11166,2.10442],[-5.11237,2.09723],[-5.11412,2.09014],[-5.12029,2.08739],[-5.15371,2.09104],[-5.16224,2.09531],[-5.16706,2.10602],[-5.16911,2.12707],[-5.15668,2.12707],[-5.15648,2.1399],[-5.16509,2.16776],[-5.16426,2.18653],[-5.15909,2.20478],[-5.14994,2.21767],[-5.13713,2.22037],[-5.13652,2.22655],[-5.15207,2.24057],[-5.14257,2.26864],[-5.12331,2.29734],[-5.1098,2.31351],[-5.10336,2.30836],[-5.09654,2.30475],[-5.10072,2.31263],[-5.08949,2.31887],[-5.07667,2.3217],[-5.05603,2.32198],[-5.04355,2.3171],[-5.02285,2.30262],[-5.01432,2.30424],[-5.02762,2.32674],[-5.03108,2.34078],[-5.02186,2.346],[-4.9924,2.33526],[-4.98004,2.33457],[-4.99737,2.34365],[-4.99496,2.34754],[-4.99344,2.3507],[-4.99459,2.35399],[-5.00005,2.35826],[-4.99946,2.36441],[-4.94795,2.35949],[-4.93281,2.36074],[-4.91002,2.36911],[-4.8947,2.36812],[-4.90326,2.37455],[-4.90717,2.37614],[-4.90647,2.38354],[-4.88742,2.38517],[-4.86807,2.39425],[-4.84965,2.39959],[-4.83263,2.39719],[-4.82201,2.38177],[-4.8289,2.36026],[-4.81332,2.36053],[-4.79209,2.37081],[-4.78496,2.37223],[-4.77703,2.36991],[-4.76264,2.3626],[-4.75381,2.36192],[-4.75313,2.36932],[-4.76548,2.37412],[-4.7611,2.38391],[-4.74873,2.39448],[-4.73701,2.40148],[-4.72387,2.40543],[-4.70834,2.40695],[-4.69345,2.40459],[-4.68221,2.39653],[-4.67778,2.4022],[-4.67416,2.40163],[-4.67133,2.39673],[-4.66929,2.38913],[-4.66522,2.38876],[-4.6604,2.39306],[-4.65719,2.39872],[-4.65609,2.40617],[-4.65785,2.41542],[-4.64859,2.41638],[-4.64028,2.41874],[-4.62557,2.42623],[-4.60168,2.43112],[-4.59787,2.42753],[-4.60037,2.41821],[-4.60336,2.41122],[-4.60306,2.4061],[-4.59561,2.40246],[-4.59615,2.39631],[-4.6006,2.39671],[-4.60125,2.38931],[-4.59504,2.38448],[-4.59127,2.37668],[-4.59116,2.36661],[-4.59563,2.35518],[-4.57544,2.37207],[-4.56535,2.37624],[-4.55249,2.37193],[-4.55958,2.36652],[-4.56257,2.36536],[-4.56312,2.35917],[-4.55607,2.34771],[-4.53768,2.33355],[-4.53014,2.32148],[-4.52466,2.32786],[-4.52896,2.33504],[-4.52348,2.34141],[-4.526,2.34786],[-4.5276,2.35623],[-4.52943,2.37677],[-4.52535,2.37642],[-4.52374,2.37041],[-4.52199,2.36724],[-4.5172,2.3614],[-4.51741,2.37891],[-4.51382,2.39783],[-4.50766,2.40851],[-4.50011,2.40153],[-4.49688,2.40586],[-4.49502,2.41047],[-4.49412,2.41585],[-4.4938,2.4221],[-4.48626,2.40939],[-4.47429,2.40452],[-4.44353,2.40352],[-4.43649,2.39994],[-4.42251,2.38506],[-4.41543,2.38067],[-4.40702,2.37963],[-4.38299,2.38412],[-4.38465,2.36731],[-4.36891,2.36086],[-4.34964,2.35937],[-4.33983,2.36372],[-4.34445,2.38725],[-4.34586,2.40269],[-4.34261,2.40926],[-4.30775,2.41264],[-4.3168,2.41958],[-4.33717,2.44988],[-4.33854,2.46637],[-4.33117,2.47423],[-4.3115,2.48136],[-4.29509,2.50587],[-4.29074,2.51382],[-4.28673,2.51349],[-4.28099,2.50805],[-4.26027,2.50504],[-4.23866,2.48979],[-4.22963,2.48828],[-4.23359,2.48559],[-4.23557,2.48306],[-4.23704,2.47988],[-4.23967,2.47545],[-4.22436,2.47294],[-4.21621,2.47305],[-4.21007,2.47642],[-4.20278,2.48398],[-4.19803,2.48678],[-4.14091,2.50317],[-4.13277,2.50843],[-4.12827,2.50807],[-4.1222,2.50596],[-4.10069,2.52882],[-4.0903,2.52555],[-4.08718,2.51089],[-4.08911,2.49153],[-4.09526,2.47393],[-4.10456,2.4646],[-4.1042,2.46005],[-4.10361,2.4572],[-4.10079,2.45062],[-4.09739,2.46302],[-4.09129,2.47211],[-4.06969,2.4951],[-4.05243,2.50768],[-4.04605,2.51463],[-4.03948,2.51095],[-4.02613,2.52482],[-4.0176,2.52672],[-4.00994,2.52075],[-4.00596,2.51136],[-4.00636,2.50089],[-4.01172,2.49153],[-4.0122,2.48529],[-4.00378,2.47723],[-4.00938,2.46952],[-4.01987,2.4443],[-4.02479,2.43674],[-4.04033,2.41913],[-4.0409,2.41172],[-4.036,2.41134],[-4.01081,2.45448],[-3.99651,2.47235],[-3.98597,2.46902],[-3.97905,2.47403],[-3.97195,2.47532],[-3.96519,2.47297],[-3.959,2.46696],[-3.96447,2.46053],[-3.96197,2.45941],[-3.96039,2.45933],[-3.95981,2.45806],[-3.96003,2.45339],[-3.96653,2.45193],[-3.97181,2.4494],[-3.98359,2.44151],[-3.98406,2.43532],[-3.97601,2.42725],[-3.95964,2.4194],[-3.92638,2.41529],[-3.91368,2.40945],[-3.91518,2.40125],[-3.91561,2.39526],[-3.91526,2.38847],[-3.92201,2.38357],[-3.92472,2.38235],[-3.92519,2.37611],[-3.91601,2.36915],[-3.90489,2.35785],[-3.89568,2.34543],[-3.89208,2.33515],[-3.85189,2.2949],[-3.84754,2.2647],[-3.84544,2.25656],[-3.84479,2.25138],[-3.84707,2.24691],[-3.84878,2.24203],[-3.84699,2.23555],[-3.84393,2.23235],[-3.83567,2.22738],[-3.82072,2.2142],[-3.78435,2.19311],[-3.78694,2.18426],[-3.79014,2.1774],[-3.79429,2.17205],[-3.79981,2.16748],[-3.79206,2.16655],[-3.78597,2.16257],[-3.78082,2.15625],[-3.77579,2.1484],[-3.76713,2.14012],[-3.76468,2.14931],[-3.76402,2.16367],[-3.76077,2.17089],[-3.73455,2.16758],[-3.72342,2.17159],[-3.70964,2.18461],[-3.69226,2.20825],[-3.68676,2.21409],[-3.67939,2.21903],[-3.66739,2.22213],[-3.62088,2.24677],[-3.61086,2.25657],[-3.61039,2.26334],[-3.61593,2.26442],[-3.62835,2.27142],[-3.59829,2.27834],[-3.58404,2.27524],[-3.57917,2.26119],[-3.56151,2.26682],[-3.54071,2.27859],[-3.52235,2.29444],[-3.51194,2.31193],[-3.51036,2.30022],[-3.50612,2.29261],[-3.49967,2.28913],[-3.49082,2.29],[-3.49132,2.28258],[-3.4965,2.2789],[-3.49972,2.27391],[-3.50254,2.26844],[-3.50617,2.26307],[-3.52598,2.24393],[-3.51495,2.23375],[-3.50207,2.24131],[-3.48765,2.25438],[-3.47221,2.2608],[-3.46942,2.25524],[-3.46735,2.2317],[-3.46545,2.22617],[-3.45818,2.22214],[-3.45432,2.21318],[-3.45272,2.20184],[-3.4521,2.19122],[-3.44462,2.19476],[-3.43934,2.20198],[-3.4364,2.21208],[-3.43593,2.22421],[-3.43409,2.20948],[-3.43133,2.19677],[-3.42582,2.19059],[-3.41555,2.19565],[-3.41511,2.20238],[-3.41776,2.20361],[-3.4233,2.20918],[-3.41525,2.21997],[-3.40713,2.2253],[-3.39907,2.22388],[-3.39125,2.2145],[-3.39542,2.22095],[-3.39853,2.22799],[-3.40303,2.24261],[-3.37287,2.25111],[-3.34106,2.25224],[-3.33966,2.24763],[-3.32738,2.22097],[-3.32699,2.2102],[-3.32429,2.20002],[-3.31895,2.19236],[-3.31095,2.18892],[-3.31437,2.17929],[-3.31671,2.17561],[-3.30129,2.1486],[-3.29809,2.13505],[-3.30207,2.11325],[-3.2951,2.11993],[-3.27369,2.13189],[-3.2795,2.13655],[-3.29134,2.14606],[-3.2873,2.15366],[-3.29592,2.17198],[-3.29734,2.18806],[-3.29285,2.18778],[-3.29041,2.18311],[-3.2878,2.17997],[-3.28012,2.1733],[-3.28429,2.18516],[-3.28987,2.19166],[-3.29661,2.19444],[-3.30407,2.19524],[-3.30989,2.20147],[-3.32026,2.23187],[-3.32589,2.24443],[-3.32328,2.25232],[-3.31782,2.26101],[-3.30972,2.26778],[-3.29933,2.27009],[-3.29687,2.27311],[-3.29643,2.28016],[-3.2948,2.28709],[-3.28869,2.28992],[-3.26388,2.28836],[-3.26755,2.29604],[-3.19949,2.30541],[-3.20168,2.30123],[-3.20211,2.29686],[-3.20024,2.29146],[-3.19589,2.28415],[-3.21395,2.25837],[-3.21522,2.2351],[-3.20124,2.21715],[-3.17383,2.20763],[-3.12548,2.2041],[-3.07288,2.20912],[-3.03997,2.22468],[-3.03594,2.22532],[-3.02927,2.22638],[-2.97736,2.2166],[-2.90548,2.22849],[-2.88182,2.21803],[-2.89127,2.23588],[-2.90557,2.24436],[-2.9307,2.24808],[-2.93094,2.24578],[-2.93427,2.24214],[-2.93802,2.24072],[-2.93953,2.24545],[-2.93992,2.25189],[-2.94186,2.25762],[-2.94514,2.26171],[-2.96749,2.26968],[-2.9754,2.2755],[-2.97854,2.28178],[-2.98281,2.30558],[-3.00605,2.32888],[-3.01027,2.35279],[-3.00899,2.38038],[-3.01039,2.40413],[-3.01744,2.4202],[-3.03306,2.42522],[-3.03263,2.43259],[-3.02328,2.43628],[-3.01579,2.44488],[-3.01073,2.45618],[-3.00261,2.50358],[-2.99764,2.5135],[-2.99246,2.5047],[-2.98811,2.51588],[-2.98707,2.52465],[-2.99006,2.53044],[-2.9978,2.533],[-3.00014,2.53891],[-2.9897,2.59615],[-2.9846,2.61074],[-2.97552,2.61502],[-2.95997,2.60652],[-2.95962,2.61264],[-2.97192,2.61945],[-2.98664,2.6203],[-2.99933,2.61391],[-3.0054,2.59889],[-3.00769,2.59491],[-3.012,2.60098],[-3.01603,2.61122],[-3.01762,2.61973],[-3.0157,2.64346],[-3.01364,2.65404],[-3.01018,2.66396],[-3.01929,2.66636],[-3.02234,2.67407],[-3.02102,2.68522],[-3.01713,2.69789],[-3.0118,2.71043],[-3.00692,2.71625],[-2.99362,2.72443],[-3.00129,2.73118],[-3.00297,2.72985],[-3.00661,2.72518],[-3.0112,2.74127],[-3.0145,2.7603],[-3.01617,2.78],[-3.01618,2.79806],[-3.01055,2.80725],[-2.99862,2.80741],[-2.97546,2.79912],[-2.97511,2.80528],[-2.98869,2.81026],[-3.00502,2.81938],[-3.01908,2.82057],[-3.02529,2.80201],[-3.03494,2.81478],[-3.04359,2.85215],[-3.05254,2.86439],[-3.04805,2.86864],[-3.04613,2.86996],[-3.04318,2.87129],[-3.06104,2.88723],[-3.06832,2.89877],[-3.07232,2.91463],[-3.05898,2.91384],[-3.05861,2.92],[-3.06583,2.94093],[-3.07073,2.94123],[-3.07704,2.92427],[-3.08865,2.93269],[-3.10231,2.94971],[-3.11474,2.95811],[-3.1126,2.96489],[-3.11128,2.96774],[-3.10901,2.97139],[-3.11821,2.96975],[-3.12703,2.96638],[-3.13471,2.96607],[-3.1406,2.97331],[-3.14182,2.98644],[-3.13728,3.02022],[-3.13685,3.03456],[-3.13834,3.04148],[-3.14068,3.04805],[-3.14911,3.0659],[-3.14966,3.07078],[-3.14982,3.07596],[-3.15162,3.08384],[-3.15736,3.09489],[-3.1729,3.11652],[-3.17592,3.12265],[-3.17099,3.1363],[-3.15162,3.15195],[-3.14683,3.16179],[-3.14198,3.19282],[-3.14115,3.20937],[-3.14508,3.22377],[-3.14967,3.2352],[-3.15266,3.24507],[-3.158,3.25232],[-3.17854,3.25774],[-3.20629,3.27159],[-3.19966,3.29478],[-3.19996,3.30969],[-3.19667,3.31714],[-3.17915,3.31832],[-3.17323,3.31584],[-3.16097,3.30564],[-3.15344,3.30306],[-3.13524,3.30463],[-3.12895,3.30156],[-3.12608,3.29711],[-3.12445,3.28493],[-3.12184,3.28005],[-3.11889,3.27897],[-3.11172,3.27988],[-3.10859,3.27924],[-3.09463,3.27347],[-3.05213,3.26437],[-3.00473,3.24493],[-2.99441,3.2451],[-2.99422,3.24281],[-2.9943,3.23785],[-2.993,3.23297],[-2.98844,3.23051],[-2.98224,3.23239],[-2.97287,3.24161],[-2.9657,3.24343],[-2.95821,3.24173],[-2.94504,3.23573],[-2.93731,3.23496],[-2.92602,3.2394],[-2.9154,3.24843],[-2.8974,3.27027],[-2.88767,3.27688],[-2.85722,3.28453],[-2.84536,3.28501],[-2.76838,3.26651],[-2.76329,3.26331],[-2.76112,3.25599],[-2.7588,3.23935],[-2.74624,3.20834],[-2.74427,3.19091],[-2.76148,3.17999],[-2.76473,3.17077],[-2.76682,3.16149],[-2.76966,3.15746],[-2.78407,3.15791],[-2.78988,3.15611],[-2.79433,3.15131],[-2.79876,3.12788],[-2.79162,3.1078],[-2.78147,3.0896],[-2.77326,3.06158],[-2.72698,2.99635],[-2.72153,2.98094],[-2.72043,2.95904],[-2.72231,2.94816],[-2.72564,2.94052],[-2.72888,2.93557],[-2.73029,2.9326],[-2.72876,2.92231],[-2.72338,2.92284],[-2.71614,2.92697],[-2.70868,2.92776],[-2.70202,2.92139],[-2.69746,2.91399],[-2.69077,2.90957],[-2.68806,2.91019],[-2.67791,2.91248],[-2.67755,2.9193],[-2.68377,2.92954],[-2.67824,2.94292],[-2.66669,2.9544],[-2.65512,2.95905],[-2.56946,2.95019],[-2.49382,2.91691],[-2.38242,2.90481],[-2.35489,2.89509],[-2.33891,2.89286],[-2.31457,2.90481],[-2.29881,2.90045],[-2.27128,2.88671],[-2.22669,2.88476],[-2.21548,2.87957],[-2.19633,2.86574],[-2.16381,2.85668],[-2.10421,2.81703],[-2.08701,2.83145],[-1.98141,2.85208],[-1.95037,2.86545],[-1.93188,2.88052],[-1.91686,2.88402],[-1.9109,2.8886],[-1.89434,2.91241],[-1.84991,2.94221],[-1.76814,2.95775],[-1.76329,2.95868],[-1.68647,2.97342],[-1.65603,2.98779],[-1.64312,2.99859],[-1.63184,3.01315],[-1.67902,2.98553],[-1.73301,2.97964],[-1.78664,2.98879],[-1.83265,3.00629],[-1.84599,3.00677],[-1.85735,3.00816],[-1.87211,3.01353],[-1.88479,3.02179],[-1.88995,3.03161],[-1.89179,3.0377],[-1.90077,3.04429],[-1.90257,3.05289],[-1.90137,3.06374],[-1.89909,3.07085],[-1.86359,3.13079],[-1.83444,3.21777],[-1.82433,3.22895],[-1.79103,3.25387],[-1.78396,3.25375],[-1.7772,3.25997],[-1.69132,3.29616],[-1.68443,3.30524],[-1.60192,3.35111],[-1.57935,3.35723],[-1.55341,3.37387],[-1.50238,3.39088],[-1.44679,3.38854],[-1.17883,3.46746],[-1.16285,3.47965],[-1.14709,3.4847],[-1.1208,3.5126],[-1.04738,3.56915],[-1.03546,3.57835],[-1.00064,3.61967],[-0.99298,3.62585],[-0.98722,3.63427],[-0.97187,3.6868],[-0.94936,3.71595],[-0.92727,3.71859],[-0.86428,3.6864],[-0.85801,3.68678],[-0.85248,3.69213],[-0.85236,3.69895],[-0.85916,3.69862],[-0.86342,3.70027],[-0.86669,3.7046],[-0.87011,3.71225],[-0.85695,3.71203],[-0.85682,3.71942],[-0.86925,3.71988],[-0.88213,3.72436],[-0.89191,3.73246],[-0.89589,3.74374],[-0.90182,3.75664],[-0.92903,3.7705],[-0.93503,3.77882],[-0.9334,3.81084],[-0.92731,3.84973],[-0.9137,3.87606],[-0.89907,3.87279],[-0.88927,3.87063],[-0.88916,3.87684],[-0.92395,3.90529],[-0.92382,3.91208],[-0.9115,3.94562],[-0.91019,3.99252],[-0.90623,4.03316],[-0.88614,4.0478],[-0.90289,4.07458],[-0.90611,4.08854],[-0.90801,4.13546],[-0.91386,4.17823],[-0.9138,4.19887],[-0.91032,4.21656],[-0.89622,4.2558],[-0.88872,4.27034],[-0.88487,4.28928],[-0.88849,4.31222],[-0.89805,4.34921],[-0.8993,4.36313],[-0.89936,4.36821],[-0.88378,4.38016],[-0.87828,4.38238],[-0.86506,4.38337],[-0.85292,4.38767],[-0.84207,4.39846],[-0.82335,4.42362],[-0.80359,4.44159],[-0.68168,4.49256],[-0.6704,4.49009],[-0.64863,4.50248],[-0.59178,4.50894],[-0.54704,4.51407],[-0.43841,4.54839],[-0.4317,4.55195],[-0.4264,4.55275],[-0.38858,4.54789],[-0.33696,4.56097],[-0.31126,4.57275],[-0.30187,4.57931],[-0.30168,4.57946],[-0.2922,4.55651],[-0.28613,4.51241],[-0.27997,4.4931],[-0.2575,4.46796],[-0.24764,4.45294],[-0.24572,4.43307],[-0.24947,4.4271],[-0.26413,4.41263],[-0.26785,4.40351],[-0.25557,4.35964],[-0.25633,4.35315],[-0.2613,4.34208],[-0.26198,4.33749],[-0.25996,4.33407],[-0.25232,4.33011],[-0.24945,4.32685],[-0.24407,4.31418],[-0.24076,4.30849],[-0.23611,4.3064],[-0.22681,4.3044],[-0.22163,4.30417],[-0.20983,4.30577],[-0.2038,4.30508],[-0.19549,4.30066],[-0.1923,4.29487],[-0.19036,4.2881],[-0.18619,4.2806],[-0.16265,4.25797],[-0.15906,4.25136],[-0.15059,4.23116],[-0.14726,4.22501],[-0.13553,4.21512],[-0.08473,4.19177],[-0.08184,4.19045],[-0.07192,4.18832],[-0.0635,4.19475],[-0.04435,4.2278],[-0.03279,4.24023],[-0.01815,4.24936],[0.01512,4.25977],[0.06557,4.27561],[0.08204,4.27062],[0.09282,4.26048],[0.10341,4.24158],[0.11226,4.2258],[0.12012,4.20683],[0.12519,4.20096],[0.13413,4.19974],[0.14268,4.19698],[0.14776,4.18776],[0.15506,4.164],[0.14624,4.1473],[0.15146,4.11843],[0.16849,4.0623],[0.16959,4.03047],[0.17292,4.01913],[0.18299,4.00632],[0.19139,3.99974],[0.21936,3.98536],[0.23052,3.98226],[0.24602,3.98419],[0.27394,3.9945],[0.28254,4.0012],[0.28884,4.00758],[0.29534,4.0119],[0.30444,4.01268],[0.31362,4.00995],[0.31781,4.00477],[0.31687,3.99671],[0.31074,3.98558],[0.3187,3.97975],[0.35994,3.97977],[0.37441,3.97683],[0.38846,3.96997],[0.40123,3.95795],[0.41175,3.9392],[0.41748,3.90065],[0.41793,3.85407],[0.4239,3.81331],[0.4466,3.79246],[0.44905,3.79893],[0.44998,3.7995],[0.45104,3.79858],[0.45394,3.80062],[0.45564,3.80363],[0.45834,3.81196],[0.46968,3.83162],[0.47479,3.83755],[0.48342,3.84083],[0.51133,3.84321],[0.53796,3.84024],[0.55127,3.83368],[0.56234,3.82611],[0.57385,3.82077],[0.58835,3.82109],[0.62885,3.83871],[0.64239,3.84032],[0.65491,3.83455],[0.67647,3.8113],[0.69021,3.8036],[0.70362,3.79197],[0.72171,3.75461],[0.73359,3.74926],[0.73823,3.75397],[0.73733,3.76082],[0.73757,3.76722],[0.74554,3.77074],[0.75134,3.76876],[0.76003,3.76347],[0.76809,3.75663],[0.7721,3.75019],[0.77073,3.73975],[0.76454,3.73243],[0.7496,3.72039],[0.74291,3.71054],[0.74011,3.70235],[0.73693,3.68414],[0.72515,3.64394],[0.72388,3.62586],[0.73305,3.6214],[0.74579,3.62741],[0.75269,3.6286],[0.75912,3.62544],[0.7706,3.58254],[0.7746,3.57321],[0.77918,3.56533],[0.77908,3.55878],[0.76376,3.55086],[0.74901,3.54001],[0.73739,3.52885],[0.73281,3.52306],[0.72966,3.51553],[0.72716,3.50374],[0.73024,3.50249],[0.73399,3.48727],[0.73501,3.47264],[0.73032,3.47299],[0.72987,3.47303],[0.76629,3.45411],[0.77499,3.45177],[0.78454,3.4533],[0.82422,3.45966],[0.92149,3.43478],[0.92633,3.43355],[0.94541,3.43725],[1.03448,3.48351],[1.06125,3.48834],[1.06815,3.49307],[1.07384,3.5046],[1.07803,3.52053],[1.08228,3.5525],[1.08147,3.55935],[1.07897,3.5643],[1.07731,3.57025],[1.07883,3.58014],[1.08239,3.58806],[1.14944,3.65888],[1.16659,3.66721],[1.16986,3.65243],[1.17717,3.64955],[1.19719,3.6542],[1.20329,3.64655],[1.20284,3.62905],[1.19987,3.60834],[1.19882,3.59082],[1.19173,3.59819],[1.18783,3.59717],[1.17634,3.57033],[1.17582,3.56128],[1.17701,3.553],[1.17666,3.54231],[1.1533,3.48012],[1.15086,3.46412],[1.15978,3.45034],[1.19061,3.43851],[1.20112,3.42039],[1.20256,3.40742],[1.20109,3.39877],[1.19802,3.39034],[1.19483,3.37803],[1.19282,3.37277],[1.18723,3.36594],[1.18617,3.35982],[1.18762,3.35485],[1.19422,3.34453],[1.19596,3.33864],[1.1967,3.3013],[1.2027,3.29385],[1.21968,3.29183],[1.23414,3.2945],[1.26199,3.30508],[1.27385,3.30596],[1.27554,3.30609],[1.28741,3.29989],[1.3121,3.27673],[1.3252,3.26974],[1.34846,3.26369],[1.35636,3.25652],[1.38502,3.21734],[1.39492,3.20827],[1.40695,3.19983],[1.42202,3.19586],[1.45107,3.20482],[1.46506,3.20558],[1.47899,3.19257],[1.49197,3.17756],[1.4969,3.16274],[1.49405,3.15905],[1.48892,3.15554],[1.48732,3.14136],[1.48913,3.13223],[1.49239,3.1284],[1.50326,3.1266],[1.50785,3.12818],[1.51112,3.13333],[1.51371,3.13888],[1.51605,3.14163],[1.52009,3.14108],[1.5276,3.13687],[1.54795,3.1301],[1.55308,3.12577],[1.56036,3.11963],[1.5934,3.06404],[1.59637,3.05499],[1.59656,3.04458],[1.59477,3.03513],[1.59437,3.02619],[1.59868,3.01745],[1.61285,3.01417],[1.62942,3.02455],[1.64535,3.03791],[1.65741,3.04377],[1.67808,3.03494],[1.68371,3.03363],[1.69328,3.03523],[1.6953,3.03932],[1.69654,3.04654],[1.70392,3.05736],[1.71984,3.06615],[1.7346,3.06329],[1.74881,3.05686],[1.76294,3.05491],[1.77088,3.0587],[1.7789,3.07007],[1.78575,3.07402],[1.79278,3.07324],[1.80733,3.06497],[1.81499,3.06338],[1.83638,3.03694],[1.84813,3.02673],[1.86474,3.01964],[1.9064,3.01131],[1.9191,2.99944],[1.92912,2.97122],[1.94029,2.97541],[1.99568,2.98088],[2.0051,2.98481],[2.01105,2.99464],[2.0188,2.99794],[2.02007,3.00336],[2.01975,3.00975],[2.02294,3.01597],[2.02751,3.018],[2.0458,3.02043],[2.0412,3.02944],[2.07842,3.03506],[2.09698,3.03385],[2.11509,3.02747],[2.11627,3.02666],[2.14824,3.00478],[2.16592,2.99602],[2.17899,2.9952],[2.18458,2.99485],[2.19145,2.99649],[2.20346,3.00552],[2.20869,3.00781],[2.21594,3.00688],[2.27699,2.97965],[2.28864,2.96938],[2.29305,2.96126],[2.29517,2.95309],[2.29555,2.94754],[2.29429,2.94707],[2.2991,2.94062],[2.33228,2.90845],[2.33477,2.90257],[2.33231,2.89441],[2.32074,2.89332],[2.31758,2.88404],[2.32221,2.87263],[2.33374,2.85988],[2.37908,2.82002],[2.38029,2.81585],[2.3794,2.80568],[2.38033,2.8017],[2.38397,2.79913],[2.39317,2.7963],[2.39607,2.79355],[2.40207,2.77529],[2.40436,2.77121],[2.4052,2.76903],[2.40685,2.76126],[2.40878,2.75779],[2.41167,2.75823],[2.42018,2.76441],[2.42282,2.76459],[2.42768,2.74897],[2.42496,2.73619],[2.42371,2.72389],[2.43276,2.71033],[2.44062,2.70739],[2.4698,2.70852],[2.49576,2.70031],[2.50399,2.70262],[2.51456,2.71816],[2.51125,2.73457],[2.50553,2.75046],[2.50864,2.7645],[2.51512,2.76642],[2.54273,2.76152],[2.5617,2.76431],[2.56898,2.76359],[2.61097,2.74256],[2.62513,2.74255],[2.62659,2.70736],[2.63556,2.68039],[2.65056,2.66979],[2.67001,2.6835],[2.67077,2.6886],[2.6684,2.69369],[2.66757,2.69918],[2.67322,2.70535],[2.67683,2.70508],[2.70282,2.6882],[2.71339,2.68338],[2.72386,2.68042],[2.78034,2.6829],[2.79839,2.67561],[2.80255,2.67522],[2.80619,2.67939],[2.81233,2.69382],[2.81619,2.69904],[2.8219,2.70137],[2.8352,2.7038],[2.84001,2.70639],[2.84303,2.71208],[2.84696,2.72681],[2.84973,2.73192],[2.86028,2.7387],[2.86288,2.73965],[2.87537,2.74419],[2.88814,2.74382],[2.8916,2.73285],[2.91998,2.73253],[2.93206,2.72888],[2.9372,2.71471],[2.93251,2.71129],[2.93102,2.70893],[2.93005,2.70557],[2.9398,2.69652],[2.956,2.67331],[2.96522,2.66294],[2.98003,2.6547],[3.00897,2.65136],[3.02397,2.64464],[3.02913,2.63895],[3.03626,2.6264],[3.04266,2.62156],[3.04928,2.62046],[3.05186,2.62003],[3.05961,2.6225],[3.06707,2.62625],[3.07523,2.62849],[3.08256,2.62769],[3.09674,2.62357],[3.1031,2.62302],[3.11097,2.62556],[3.12585,2.63488],[3.13298,2.63727],[3.18849,2.62479],[3.22558,2.63102],[3.23752,2.63042],[3.34504,2.58159],[3.41041,2.57241],[3.41848,2.56576],[3.41823,2.56543],[3.40575,2.54905],[3.38779,2.50891],[3.36329,2.42489],[3.35602,2.41062],[3.35222,2.40691],[3.3289,2.39239],[3.32313,2.39177],[3.32186,2.3892],[3.31898,2.38608],[3.31626,2.38058],[3.31542,2.37112],[3.31434,2.36552],[3.3108,2.36204],[3.30588,2.35997],[3.28737,2.35849],[3.28003,2.35555],[3.27712,2.34643],[3.2775,2.32738],[3.27506,2.31932],[3.26857,2.30941],[3.26037,2.30037],[3.25285,2.29478],[3.23612,2.27204],[3.22657,2.26267],[3.21587,2.25844],[3.20849,2.25251],[3.1833,2.20731],[3.17968,2.17444],[3.18172,2.13979],[3.19081,2.11911],[3.19123,2.11226],[3.17546,2.09818],[3.16801,2.08957],[3.16514,2.08033],[3.16492,2.06128],[3.16214,2.0514],[3.15822,2.0447],[3.15419,2.03498],[3.15152,2.02343],[3.14823,1.99683],[3.14826,1.98371],[3.15111,1.97184],[3.1562,1.95939],[3.16037,1.94631],[3.16038,1.93234],[3.15213,1.91714],[3.1403,1.90977],[3.1301,1.90036],[3.12675,1.87916],[3.12658,1.85884],[3.12338,1.84171],[3.11723,1.82683],[3.07856,1.76538],[3.07487,1.75295],[3.0744,1.73851],[3.07148,1.73049],[3.06728,1.7242],[3.06297,1.71501],[3.06099,1.70653],[3.05937,1.69957],[3.05629,1.67989],[3.06074,1.6389],[3.09259,1.58973],[3.09586,1.55872],[3.0902,1.54635],[3.07345,1.5264],[3.07063,1.51288],[3.0724,1.49674],[3.07141,1.49221],[3.06777,1.48198],[3.06535,1.47691],[3.06117,1.47235],[3.05941,1.46791],[3.05889,1.4637],[3.05938,1.4612],[3.06008,1.45871],[3.0602,1.45427],[3.06473,1.43594],[3.06392,1.42471],[3.05513,1.41922],[3.05166,1.41422],[3.04394,1.38139],[3.04293,1.36746],[3.05327,1.33306],[3.05385,1.31678],[3.05027,1.30996],[3.03983,1.29748],[3.03781,1.29138],[3.04092,1.27004],[3.04369,1.25943],[3.04659,1.255],[3.05684,1.25037],[3.06668,1.23818],[3.08361,1.20874],[3.08794,1.20393],[3.09248,1.20042],[3.09633,1.19543],[3.09835,1.18602],[3.09695,1.18235],[3.09479,1.17203],[3.09443,1.17187],[3.07125,1.16154],[3.0556,1.15161],[3.05208,1.14837],[3.02756,1.12583],[3.0292,1.12526],[3.04091,1.1173],[3.04321,1.11748],[3.04399,1.10753],[3.04139,1.10168],[3.03605,1.09957],[3.02899,1.10066],[3.0252,1.09833],[3.02447,1.09514],[3.02616,1.0912],[3.03136,1.08471],[3.03208,1.08262],[3.0322,1.08225],[3.03228,1.07965],[3.03154,1.07677],[3.03044,1.07502],[3.02064,1.06512],[3.01184,1.06591],[3.00589,1.06926],[3.00273,1.07103],[2.99206,1.0741],[2.9843,1.07134],[2.98471,1.06522],[2.98848,1.05926],[2.99085,1.05696],[2.99439,1.05249],[2.99582,1.04694],[2.99418,1.0375],[2.99072,1.0324],[2.98182,1.0193],[2.96983,1.01368],[2.96344,1.01069],[2.93524,1.01033],[2.91637,1.01011],[2.89869,1.00538],[2.87371,0.99287],[2.86921,0.9917],[2.86385,0.99363],[2.86093,0.99709],[2.85885,1.00057],[2.85594,1.00266],[2.83576,1.00783],[2.82062,1.01586],[2.81592,1.03193],[2.82671,1.06084],[2.80845,1.05802],[2.80063,1.05885],[2.79937,1.05899],[2.7903,1.0636],[2.77421,1.06609],[2.74087,1.05848],[2.72322,1.06013],[2.71683,1.06453],[2.71061,1.06579],[2.70462,1.06391],[2.69885,1.05889],[2.68648,1.05442],[2.68871,1.04341],[2.69639,1.02999],[2.70027,1.01828],[2.6956,1.00963],[2.68597,1.00055],[2.67531,0.99367],[2.66652,0.99124],[2.65775,0.98882],[2.65764,0.96997],[2.64073,0.95886],[2.63137,0.94528],[2.62374,0.92929],[2.62101,0.91638],[2.70118,0.92832],[2.71333,0.93495],[2.72383,0.92725],[2.73445,0.91855],[2.74203,0.90879],[2.73734,0.89758],[2.73118,0.89319],[2.72434,0.89093],[2.71748,0.88642],[2.70828,0.87256],[2.70471,0.87093],[2.69858,0.86985],[2.68649,0.85608],[2.68317,0.83542],[2.68714,0.81084],[2.64273,0.77474],[2.624,0.75345],[2.61212,0.7315],[2.61068,0.73004],[2.56955,0.68815],[2.5495,0.68008],[2.55115,0.66307],[2.54162,0.65756],[2.53917,0.65569],[2.53693,0.64923],[2.52013,0.6423],[2.51402,0.63569],[2.50561,0.61943],[2.51464,0.60132],[2.50012,0.57811],[2.45623,0.54138],[2.38386,0.51501],[2.35162,0.4944],[2.34298,0.45898],[2.3462,0.45009],[2.35606,0.43313],[2.35873,0.4222],[2.35821,0.40835],[2.35598,0.40201],[2.35481,0.39865],[2.35044,0.38987],[2.3411,0.35698],[2.34032,0.35209],[2.34248,0.34656],[2.3463,0.34183],[2.35164,0.33643],[2.35265,0.31963],[2.35039,0.31125],[2.34309,0.30123],[2.3361,0.29553],[2.31389,0.2825],[2.29669,0.26136],[2.29013,0.25533],[2.24213,0.22631],[2.15323,0.13809],[2.14448,0.12562],[2.14713,0.11256],[2.15895,0.10036],[2.1645,0.09463],[2.1414,0.06296],[2.11903,0.02091],[2.11153,0.01216],[2.10906,0.00598],[2.10926,0.00088],[2.11094,-0.00375],[2.11274,-0.00781],[2.11335,-0.01086],[2.11365,-0.01845],[2.11534,-0.02515],[2.11431,-0.03177],[2.10669,-0.03964],[2.11007,-0.04154],[2.14479,-0.06104],[2.15534,-0.07156],[2.16435,-0.08632],[2.16572,-0.09731],[2.15453,-0.12528],[2.14536,-0.14816],[2.14338,-0.15602],[2.13956,-0.18445],[2.13962,-0.19523],[2.14063,-0.20442],[2.13789,-0.21118],[2.12285,-0.21652],[2.11886,-0.21714],[2.1147,-0.21678],[2.10919,-0.21524],[2.1079,-0.21519],[2.10676,-0.21534],[2.10563,-0.21574],[2.06494,-0.23762],[2.04846,-0.24897],[2.04634,-0.26107],[2.05408,-0.27445],[2.0669,-0.28934],[2.06507,-0.29797],[2.06015,-0.30822],[2.05173,-0.3302],[2.06804,-0.31963],[2.09919,-0.31096],[2.13072,-0.30851],[2.1547,-0.31809],[2.17673,-0.30566],[2.21042,-0.26288],[2.2535,-0.23177],[2.27059,-0.21212],[2.26606,-0.1893],[2.26112,-0.18739],[2.24976,-0.19317],[2.24239,-0.18971],[2.23929,-0.18561],[2.23197,-0.1694],[2.23145,-0.16539],[2.2244,-0.1487],[2.22309,-0.14476],[2.22114,-0.13888],[2.2243,-0.12513],[2.23804,-0.10475],[2.25666,-0.07796],[2.27823,-0.05763],[2.29918,-0.04986],[2.3218,-0.04785],[2.34393,-0.04117],[2.40094,0.00167],[2.44469,0.01239],[2.49067,0.01301],[2.59454,-0.00874],[2.60516,-0.01338],[2.61207,-0.02298],[2.61323,-0.03207],[2.61447,-0.0418],[2.61036,-0.05872],[2.59319,-0.08091],[2.59003,-0.09259],[2.60432,-0.11473],[2.63004,-0.13953],[2.64706,-0.1658],[2.62485,-0.21462],[2.61455,-0.25088],[2.60981,-0.28532],[2.61662,-0.30177],[2.67235,-0.31125],[2.68345,-0.32098],[2.6831,-0.32864],[2.67861,-0.3365],[2.67335,-0.34357],[2.67045,-0.34887],[2.67233,-0.3478],[2.67404,-0.35762],[2.67476,-0.36801],[2.6738,-0.36904],[2.67447,-0.37675],[2.67324,-0.38099],[2.67382,-0.38406],[2.68014,-0.3884],[2.68678,-0.389],[2.69189,-0.38472],[2.69659,-0.37938],[2.70228,-0.37673],[2.7184,-0.3829],[2.76804,-0.43358],[2.77152,-0.43567],[2.77457,-0.44615],[2.78359,-0.46644],[2.7894,-0.48442],[2.79365,-0.49427],[2.79887,-0.50205],[2.78912,-0.5073],[2.78226,-0.51684],[2.77726,-0.52911],[2.77355,-0.54277],[2.76486,-0.55921],[2.75143,-0.57181],[2.73607,-0.58063],[2.72146,-0.58574],[2.70426,-0.58643],[2.69947,-0.58739],[2.69921,-0.59252],[2.69883,-0.59944],[2.69833,-0.60395],[2.69406,-0.60554],[2.68965,-0.5992],[2.68494,-0.59667],[2.6788,-0.59455],[2.66017,-0.60118],[2.64975,-0.60813],[2.6416,-0.62323],[2.63864,-0.63978],[2.63899,-0.65757],[2.64089,-0.66993],[2.64172,-0.6753],[2.65156,-0.71621],[2.66665,-0.73675],[2.68617,-0.74989],[2.70462,-0.7527],[2.7141,-0.75575],[2.73076,-0.77072],[2.74043,-0.77736],[2.7634,-0.782],[2.7723,-0.78759],[2.7773,-0.8022],[2.77593,-0.80795],[2.76878,-0.82585],[2.76732,-0.83424],[2.76909,-0.8422],[2.77735,-0.85355],[2.78047,-0.86083],[2.78638,-0.90182],[2.79239,-0.91602],[2.82531,-0.93231],[2.85699,-0.95376],[2.85954,-0.95738],[2.86443,-0.96431],[2.86993,-0.97647],[2.87616,-0.98734],[2.88589,-0.99396],[2.91659,-1.00552],[2.92225,-1.0094],[2.92218,-1.02184],[2.91674,-1.03736],[2.90359,-1.06416],[2.88228,-1.09248],[2.87895,-1.09853],[2.88401,-1.12723],[2.89261,-1.1468],[2.89343,-1.16245],[2.87513,-1.17951],[2.86301,-1.20465],[2.85852,-1.20973],[2.85474,-1.20858],[2.84539,-1.19833],[2.83966,-1.19619],[2.81519,-1.2043],[2.79059,-1.21705],[2.78192,-1.22621],[2.77076,-1.24823],[2.76088,-1.25812],[2.75455,-1.25998],[2.73809,-1.261],[2.73268,-1.26374],[2.72938,-1.27236],[2.73292,-1.27761],[2.73723,-1.28199],[2.73615,-1.28824],[2.71373,-1.30043],[2.68792,-1.2927],[2.66137,-1.27994],[2.63647,-1.27694],[2.63128,-1.27992],[2.61906,-1.29035],[2.6131,-1.29414],[2.60761,-1.29533],[2.59483,-1.29546],[2.58861,-1.29689],[2.5648,-1.31207],[2.56255,-1.31414],[2.55253,-1.32337],[2.54466,-1.33503],[2.55793,-1.35341],[2.56988,-1.36282],[2.5713,-1.36977],[2.57086,-1.37779],[2.57318,-1.38671],[2.58233,-1.40099],[2.59007,-1.40703],[2.61494,-1.4082],[2.63413,-1.42081],[2.64001,-1.44917],[2.64126,-1.505],[2.65462,-1.52526],[2.67878,-1.54423],[2.72901,-1.57034],[2.74258,-1.57308],[2.77718,-1.56436],[2.78954,-1.56478],[2.8258,-1.57762],[2.83926,-1.59092],[2.84244,-1.59577],[2.84428,-1.60156],[2.84421,-1.6046],[2.84369,-1.60731],[2.84401,-1.6121],[2.84272,-1.61289],[2.84,-1.62876],[2.83955,-1.63008],[2.84871,-1.65123],[2.85378,-1.67565],[2.85693,-1.684],[2.87238,-1.70993],[2.88061,-1.72371],[2.88539,-1.73647],[2.87269,-1.73738],[2.84666,-1.73107],[2.83359,-1.73184],[2.81773,-1.74161],[2.80545,-1.75838],[2.80365,-1.76748],[2.80139,-1.77886],[2.81046,-1.79962],[2.80091,-1.80758],[2.77858,-1.85115],[2.74364,-1.88078],[2.7367,-1.89454],[2.74042,-1.92542],[2.75778,-1.95254],[2.7806,-1.97433],[2.80004,-1.989],[2.7767,-2.00342],[2.77211,-2.01226],[2.76765,-2.04364],[2.76617,-2.0497],[2.76627,-2.05475],[2.76938,-2.06379],[2.77256,-2.06817],[2.77593,-2.07176],[2.78921,-2.08588],[2.79532,-2.09538],[2.80475,-2.11519],[2.80912,-2.12251],[2.81589,-2.12893],[2.83061,-2.13846],[2.83758,-2.14585],[2.84259,-2.15541],[2.84543,-2.16461],[2.84912,-2.17314],[2.85625,-2.18047],[2.866,-2.1839],[2.87445,-2.18208],[2.88289,-2.17876],[2.89248,-2.17744],[2.90165,-2.17961],[2.94495,-2.19987],[2.97425,-2.20887],[3.05302,-2.2518],[3.06682,-2.25678],[3.08568,-2.25891],[3.0953,-2.26205],[3.10067,-2.26903],[3.10498,-2.2771],[3.11209,-2.28332],[3.11908,-2.28454],[3.14798,-2.28366],[3.27076,-2.24063],[3.29134,-2.23779],[3.31971,-2.21678],[3.34211,-2.21949],[3.33416,-2.25243],[3.344,-2.27043],[3.36082,-2.28539],[3.37031,-2.303],[3.37354,-2.30895],[3.37315,-2.32627],[3.36577,-2.33745],[3.35585,-2.34604],[3.34849,-2.35535],[3.3446,-2.36776],[3.33997,-2.39044],[3.33507,-2.40224],[3.32006,-2.42103],[3.28469,-2.45457],[3.27151,-2.47861],[3.24228,-2.51479],[3.2322,-2.53606],[3.23714,-2.56105],[3.25398,-2.60803],[3.24485,-2.6153],[3.2418,-2.61555],[3.23877,-2.61528],[3.23574,-2.61679],[3.23547,-2.62047],[3.23731,-2.63304],[3.23686,-2.63656],[3.23126,-2.63981],[3.22707,-2.63964],[3.22134,-2.64495],[3.2157,-2.65253],[3.20991,-2.65933],[3.20114,-2.64774],[3.18676,-2.64051],[3.17304,-2.64687],[3.16295,-2.65948],[3.1597,-2.67136],[3.15924,-2.68276],[3.15054,-2.69027],[3.1431,-2.69853],[3.14056,-2.70818],[3.13576,-2.72031],[3.12749,-2.72194],[3.11426,-2.72023],[3.09902,-2.71542],[3.08249,-2.71799],[3.07157,-2.72535],[3.06261,-2.73649],[3.06558,-2.74704],[3.05333,-2.76247],[3.04631,-2.76716],[3.0405,-2.75493],[3.02655,-2.75248],[3.01732,-2.75701],[3.008,-2.75879],[3.00312,-2.76835],[2.99781,-2.77289],[2.99566,-2.78032],[2.99211,-2.80849],[2.99782,-2.83518],[2.99845,-2.84039],[3.00169,-2.8513],[3.00407,-2.8596],[2.99467,-2.86633],[2.98468,-2.8501],[2.97824,-2.84669],[2.9667,-2.84691],[2.95451,-2.8554],[2.94568,-2.86676],[2.93663,-2.87495],[2.93121,-2.8811],[2.92586,-2.86976],[2.91417,-2.87116],[2.8991,-2.87011],[2.88599,-2.87273],[2.87653,-2.88003],[2.86492,-2.89344],[2.86253,-2.90833],[2.86905,-2.91258],[2.86866,-2.91309],[2.8723,-2.91568],[2.87288,-2.92015],[2.85854,-2.9406],[2.85303,-2.94844],[2.85078,-2.97226],[2.83525,-2.98403],[2.8327,-2.99451],[2.81608,-2.99686],[2.81478,-2.99097],[2.81235,-2.98769],[2.80954,-2.98393],[2.80608,-2.98728],[2.80507,-2.99476],[2.80863,-3.00743],[2.79901,-3.01118],[2.79024,-3.00838],[2.7786,-3.00868],[2.75294,-3.01734],[2.74514,-3.00791],[2.73339,-3.00425],[2.72592,-3.00938],[2.71523,-3.01992],[2.71767,-3.04553],[2.70744,-3.06118],[2.70824,-3.07739],[2.69095,-3.08043],[2.67694,-3.08307],[2.67134,-3.0965],[2.6684,-3.10748],[2.66199,-3.11517],[2.6429,-3.13502],[2.62349,-3.14779],[2.61954,-3.16306],[2.6349,-3.16696],[2.67859,-3.15306],[2.69406,-3.15555],[2.6978,-3.16288],[2.68941,-3.18066],[2.67738,-3.18971],[2.67607,-3.20798],[2.68122,-3.21541],[2.68749,-3.22715],[2.67385,-3.23891],[2.65964,-3.24813],[2.65153,-3.25045],[2.63774,-3.25754],[2.63006,-3.25631],[2.62693,-3.25157],[2.62497,-3.24383],[2.61636,-3.24757],[2.60354,-3.24807],[2.58626,-3.25109],[2.58415,-3.26082],[2.57759,-3.27307],[2.56265,-3.28331],[2.54306,-3.2791],[2.52287,-3.28332],[2.50147,-3.28463],[2.48685,-3.29065],[2.47041,-3.30219],[2.46204,-3.31996],[2.46538,-3.33291],[2.47002,-3.34736],[2.44581,-3.34846],[2.43563,-3.33975],[2.43313,-3.33559],[2.41866,-3.33099],[2.39939,-3.32256],[2.37963,-3.32117],[2.35512,-3.3265],[2.33606,-3.33503],[2.32567,-3.34135],[2.31458,-3.35203],[2.30826,-3.37287],[2.30892,-3.39665],[2.32274,-3.40187],[2.33292,-3.39835],[2.32939,-3.40799],[2.31073,-3.41091],[2.26927,-3.41503],[2.26241,-3.41172],[2.2728,-3.40539],[2.2845,-3.40057],[2.29359,-3.39274],[2.29066,-3.37417],[2.27594,-3.36183],[2.26303,-3.36374],[2.22853,-3.36977],[2.21571,-3.37027],[2.20725,-3.3499],[2.18899,-3.34719],[2.1648,-3.34828],[2.14642,-3.33757],[2.14799,-3.33166],[2.14888,-3.32201],[2.15066,-3.31703],[2.13863,-3.31715],[2.12708,-3.32062],[2.10618,-3.33223],[2.11868,-3.33676],[2.13,-3.35852],[2.14238,-3.36365],[2.16031,-3.37059],[2.15254,-3.37993],[2.13558,-3.37873],[2.11419,-3.38003],[2.10508,-3.38378],[2.09224,-3.40816],[2.06437,-3.40054],[2.04277,-3.38488],[2.03632,-3.37594],[2.05136,-3.36566],[2.06211,-3.3551],[2.05699,-3.34767],[2.04884,-3.34285],[2.0362,-3.34055],[2.03401,-3.33191],[2.0303,-3.32458],[2.01888,-3.32381],[2.00459,-3.32423],[1.9714,-3.31059],[1.96435,-3.28891],[1.95392,-3.27825],[1.95264,-3.27777],[1.94008,-3.27303],[1.92468,-3.27191],[1.91676,-3.28265],[1.90964,-3.29915],[1.89174,-3.2922],[1.88034,-3.29141],[1.86991,-3.27935],[1.86094,-3.26738],[1.85364,-3.25412],[1.84406,-3.2492],[1.83647,-3.25432],[1.82911,-3.25663],[1.79665,-3.2548],[1.78201,-3.25612],[1.75982,-3.25316],[1.74942,-3.25243],[1.73132,-3.25745],[1.71403,-3.24994],[1.71614,-3.23224],[1.71815,-3.22199],[1.72302,-3.2117],[1.72858,-3.19513],[1.71967,-3.18549],[1.71832,-3.17385],[1.71512,-3.1681],[1.70461,-3.13213],[1.67142,-3.11197],[1.63149,-3.14048],[1.57677,-3.14073],[1.54913,-3.14502],[1.50506,-3.14394],[1.48245,-3.13709],[1.46724,-3.11509],[1.46055,-3.09162],[1.47481,-3.06362],[1.49704,-3.05034],[1.56181,-3.04862],[1.58177,-3.04187],[1.59531,-3.03029],[1.60984,-3.01162],[1.61849,-2.98897],[1.61528,-2.96544],[1.59445,-2.98003],[1.57425,-2.98801],[1.55559,-2.98523],[1.53943,-2.96752],[1.53399,-2.95233],[1.53329,-2.94382],[1.52943,-2.93881],[1.51423,-2.9341],[1.50871,-2.93352],[1.49154,-2.93469],[1.48844,-2.93149],[1.47773,-2.91752],[1.47317,-2.91479],[1.46837,-2.92129],[1.46405,-2.93479],[1.46085,-2.94851],[1.4598,-2.95597],[1.46418,-2.97473],[1.47095,-2.98279],[1.47989,-2.98743],[1.49065,-2.996],[1.5,-3.02076],[1.49247,-3.04328],[1.47568,-3.05597],[1.45454,-3.05878],[1.44328,-3.05671],[1.40299,-3.0347],[1.38478,-3.04362],[1.37724,-3.05005],[1.35957,-3.05437],[1.35261,-3.06074],[1.34701,-3.07463],[1.35057,-3.07978],[1.3582,-3.09784],[1.36043,-3.11054],[1.38476,-3.10811],[1.3678,-3.12466],[1.35242,-3.134],[1.3484,-3.11699],[1.33508,-3.0943],[1.30447,-3.07792],[1.27925,-3.05532],[1.26748,-3.02928],[1.26802,-2.97075],[1.26581,-2.95375],[1.26093,-2.93888],[1.25305,-2.92181],[1.24263,-2.90734],[1.22988,-2.90007],[1.23002,-2.90624],[1.25238,-2.94017],[1.2558,-2.95056],[1.25737,-3.02203],[1.26811,-3.05536],[1.28835,-3.07548],[1.31081,-3.0908],[1.32796,-3.10925],[1.32644,-3.13004],[1.30532,-3.13165],[1.21393,-3.13134],[1.16009,-3.12013],[1.1409,-3.10934],[1.14002,-3.09255],[1.15437,-3.07601],[1.15582,-3.06337],[1.14941,-3.05036],[1.13141,-3.03755],[1.10049,-3.02566],[1.02528,-3.03508],[0.87706,-3.0254],[0.85936,-3.02181],[0.84375,-3.01433],[0.82352,-2.99913],[0.81183,-2.97592],[0.82287,-2.95353],[0.82164,-2.9501],[0.80262,-2.93478],[0.76055,-2.9311],[0.71955,-2.9369],[0.69215,-2.94811],[0.68231,-2.95561],[0.5386,-3.07651],[0.45318,-3.11506],[0.42968,-3.1352],[0.37454,-3.20918],[0.35926,-3.21601],[0.33002,-3.20178],[0.31253,-3.20517],[0.28119,-3.20687],[0.23188,-3.22786],[0.17844,-3.27158],[0.16624,-3.28675],[0.16145,-3.29577],[0.15148,-3.30436],[0.14318,-3.31432],[0.13066,-3.32575],[0.12134,-3.33855],[0.11299,-3.35565],[0.0995,-3.36987],[0.08344,-3.38458],[0.07626,-3.40305],[0.07032,-3.41823],[0.06301,-3.43674],[0.05159,-3.46377],[0.04636,-3.48227],[0.04112,-3.4979],[0.03386,-3.52634],[0.02861,-3.54768],[0.03071,-3.55762],[0.04015,-3.56329],[0.04118,-3.58321],[0.03494,-3.64293],[0.03402,-3.65306],[0.02977,-3.69981],[0.02871,-3.7396],[0.0319,-3.7652],[0.02772,-3.80645],[0.03087,-3.86045],[0.03408,-3.9017],[0.03831,-3.93439],[0.04884,-3.94716],[0.06466,-3.95424],[0.08469,-3.95852],[0.10155,-3.96417],[0.10788,-3.9741],[0.1079,-3.9855],[0.10582,-3.99686],[0.11113,-4.00679],[0.11855,-4.01387],[0.13015,-4.03234],[0.13442,-4.05367],[0.13398,-4.05726],[0.10205,-4.06285],[0.08269,-4.06381],[0.06378,-4.06167],[0.04855,-4.05687],[0.03967,-4.05126],[0.03248,-4.04367],[0.02666,-4.03434],[0.02191,-4.02335],[0.01702,-4.02196],[-0.00462,-4.02139],[-0.0125,-4.01969],[-0.02512,-4.02798],[-0.04905,-4.01877],[-0.07339,-4.03765],[-0.08579,-4.0397],[-0.09848,-4.03924],[-0.11042,-4.04048],[-0.12229,-4.04749],[-0.14468,-4.06913],[-0.15656,-4.07662],[-0.17203,-4.07902],[-0.20103,-4.07447],[-0.21619,-4.07555],[-0.2293,-4.0822],[-0.26064,-4.10669],[-0.26658,-4.11527],[-0.25992,-4.13436],[-0.25078,-4.14473],[-0.25049,-4.14906],[-0.27034,-4.1501],[-0.28665,-4.14696],[-0.32069,-4.13514],[-0.33502,-4.13545],[-0.3408,-4.14067],[-0.3471,-4.15678],[-0.35211,-4.16162],[-0.35985,-4.1618],[-0.36811,-4.15897],[-0.38308,-4.15037],[-0.39677,-4.14665],[-0.41103,-4.13525],[-0.42256,-4.11963],[-0.42788,-4.10349],[-0.43967,-4.10284],[-0.46268,-4.09762],[-0.50561,-4.07704],[-0.51443,-4.06962],[-0.53498,-4.05782],[-0.55827,-4.0601],[-0.60417,-4.07392],[-0.6391,-4.06914],[-0.65095,-4.0746],[-0.65453,-4.07977],[-0.66029,-4.09441],[-0.66387,-4.10016],[-0.68172,-4.11348],[-0.69436,-4.12665],[-0.70301,-4.13209],[-0.71523,-4.13503],[-0.73456,-4.13696],[-0.74458,-4.13523],[-0.75362,-4.12927],[-0.76801,-4.11644],[-0.77485,-4.10094],[-0.78408,-4.06352],[-0.79395,-4.04664],[-0.80536,-4.04144],[-0.81919,-4.04047],[-0.8365,-4.03618],[-0.8776,-4.00722],[-0.89302,-4.00052],[-0.93886,-3.99349],[-0.95238,-3.98763],[-0.95194,-3.98457],[-0.95244,-3.98207],[-0.95386,-3.98001],[-0.95605,-3.97853],[-0.95297,-3.95369],[-0.94799,-3.94166],[-0.94446,-3.93312],[-0.93073,-3.92025],[-0.91216,-3.91882],[-0.91503,-3.91451],[-0.92111,-3.90541],[-0.93819,-3.89983],[-0.94998,-3.89212],[-0.94324,-3.87198],[-1.02699,-3.86232],[-1.03501,-3.85839],[-1.07454,-3.83032],[-1.08583,-3.83093],[-1.10764,-3.83879],[-1.13094,-3.83714],[-1.14307,-3.87619],[-1.15952,-3.88251],[-1.16992,-3.86839],[-1.18166,-3.83397],[-1.19544,-3.81413],[-1.20798,-3.79045],[-1.21408,-3.787],[-1.221,-3.78647],[-1.22465,-3.7824],[-1.22115,-3.7683],[-1.23834,-3.76325],[-1.32908,-3.76097],[-1.35385,-3.76834],[-1.36197,-3.76712],[-1.37439,-3.7576],[-1.3816,-3.7437],[-1.38679,-3.72811],[-1.39367,-3.71362],[-1.4064,-3.70164],[-1.42164,-3.69648],[-1.48427,-3.69069],[-1.48981,-3.68717],[-1.50171,-3.67692],[-1.50789,-3.67436],[-1.51547,-3.67662],[-1.52254,-3.68205],[-1.52963,-3.68552],[-1.53745,-3.68202],[-1.54885,-3.67009],[-1.5551,-3.66503],[-1.57668,-3.65595],[-1.60792,-3.63628],[-1.62047,-3.63371],[-1.63479,-3.6347],[-1.64755,-3.63154],[-1.67263,-3.62082],[-1.6855,-3.61916],[-1.70567,-3.62004],[-1.7228,-3.62621],[-1.72672,-3.64042],[-1.72576,-3.66177],[-1.73694,-3.68937],[-1.72914,-3.70086],[-1.73474,-3.705],[-1.7376,-3.70914],[-1.74239,-3.71902],[-1.73208,-3.72307],[-1.72359,-3.73443],[-1.71901,-3.74967],[-1.72025,-3.76568],[-1.72179,-3.76808],[-1.72696,-3.77613],[-1.73674,-3.77934],[-1.76275,-3.77506],[-1.85466,-3.77489],[-1.86672,-3.76937],[-1.89506,-3.77586],[-1.90946,-3.77616],[-1.92409,-3.77279],[-1.92758,-3.76925],[-1.92798,-3.76514],[-1.92759,-3.761],[-1.9291,-3.7577],[-1.94888,-3.7397],[-1.9624,-3.74404],[-1.9759,-3.7567],[-1.99757,-3.78514],[-2.00857,-3.78636],[-2.01958,-3.77232],[-2.0344,-3.74389],[-2.04595,-3.73766],[-2.08477,-3.72605],[-2.09678,-3.72747],[-2.11093,-3.73632],[-2.15635,-3.74139],[-2.21395,-3.76013],[-2.23954,-3.76153],[-2.26818,-3.74892],[-2.27227,-3.74435],[-2.27549,-3.7392],[-2.2804,-3.73447],[-2.28967,-3.73143],[-2.29729,-3.72765],[-2.29909,-3.72113],[-2.29976,-3.71407],[-2.30405,-3.70838],[-2.31578,-3.69794],[-2.32407,-3.68283],[-2.32768,-3.66544],[-2.32535,-3.64821],[-2.33879,-3.65326],[-2.36033,-3.65825],[-2.37993,-3.6551],[-2.38791,-3.63621],[-2.42953,-3.60856],[-2.43116,-3.60748],[-2.442,-3.59637],[-2.44642,-3.60609]],[[-0.76332,-3.99839],[-0.77178,-4.00219],[-0.78013,-4.01998],[-0.77892,-4.03255],[-0.7693,-4.04017],[-0.75251,-4.04284],[-0.75044,-4.04286],[-0.74308,-4.04138],[-0.74054,-4.04036],[-0.74854,-4.02601],[-0.75582,-4.00918],[-0.76332,-3.99839]]],[[[-2.92383,-0.59064],[-2.93488,-0.60594],[-2.94688,-0.59969],[-2.95499,-0.5645],[-2.96001,-0.55106],[-2.96687,-0.53663],[-3.00513,-0.48829],[-3.01926,-0.47698],[-3.03325,-0.45816],[-3.04372,-0.43835],[-3.04015,-0.42961],[-3.03802,-0.41936],[-3.04456,-0.39582],[-3.05791,-0.36044],[-3.03654,-0.36456],[-3.01366,-0.37822],[-2.99296,-0.39692],[-2.97762,-0.41633],[-2.96999,-0.42077],[-2.96107,-0.4182],[-2.95157,-0.41762],[-2.94239,-0.42819],[-2.94023,-0.44075],[-2.94197,-0.45195],[-2.94198,-0.46167],[-2.93469,-0.4695],[-2.93505,-0.47631],[-2.93897,-0.48496],[-2.93211,-0.49232],[-2.91275,-0.50542],[-2.90805,-0.51469],[-2.90734,-0.5229],[-2.91522,-0.56484],[-2.92383,-0.59064]]],[[[-3.1442,-0.16897],[-3.15147,-0.1629],[-3.15111,-0.1567],[-3.11067,-0.1489],[-3.09837,-0.15228],[-3.09351,-0.1565],[-3.09046,-0.16204],[-3.09049,-0.16798],[-3.09526,-0.17356],[-3.11134,-0.16557],[-3.11841,-0.1648],[-3.10757,-0.18652],[-3.08931,-0.18707],[-3.06896,-0.17931],[-3.0519,-0.176],[-3.05228,-0.18281],[-3.06212,-0.18226],[-3.06254,-0.18968],[-3.05137,-0.19587],[-2.98239,-0.21099],[-2.9668,-0.22232],[-2.95449,-0.23844],[-2.94746,-0.25735],[-2.95391,-0.25757],[-2.95916,-0.25892],[-2.96667,-0.26253],[-2.96984,-0.25846],[-2.97281,-0.25708],[-3.00392,-0.24948],[-3.06844,-0.20231],[-3.10764,-0.20758],[-3.118,-0.20268],[-3.1442,-0.16897]]],[[[-3.68445,0.35654],[-3.67174,0.35783],[-3.6585,0.35474],[-3.63255,0.34155],[-3.62054,0.33086],[-3.61404,0.31757],[-3.62898,0.32476],[-3.68374,0.32915],[-3.69038,0.34795],[-3.68445,0.35654]]],[[[-3.51368,0.52335],[-3.52452,0.53069],[-3.533,0.55391],[-3.54592,0.57746],[-3.56243,0.59055],[-3.58153,0.58226],[-3.59132,0.59841],[-3.59932,0.63728],[-3.60987,0.65304],[-3.5709,0.65259],[-3.55869,0.64962],[-3.54536,0.63991],[-3.54433,0.6285],[-3.54786,0.61547],[-3.54797,0.60115],[-3.5415,0.59255],[-3.51909,0.57875],[-3.51214,0.57085],[-3.50978,0.55666],[-3.50949,0.53638],[-3.51368,0.52335]]],[[[-4.2192,0.97663],[-4.23037,0.98598],[-4.22688,1.00146],[-4.2308,1.01827],[-4.23686,1.03471],[-4.23971,1.0494],[-4.23357,1.05453],[-4.23035,1.06063],[-4.22586,1.06039],[-4.22032,1.05417],[-4.21196,1.05148],[-4.18281,1.03314],[-4.16701,1.01855],[-4.16533,1.01564],[-4.14409,0.99009],[-4.13632,0.98533],[-4.11599,0.98474],[-4.10986,0.97657],[-4.11413,0.95821],[-4.13255,0.9543],[-4.18501,0.96335],[-4.2192,0.97663]]],[[[-5.37536,2.21631],[-5.37467,2.2231],[-5.3724,2.22323],[-5.36782,2.22203],[-5.36563,2.22217],[-5.36852,2.23234],[-5.37469,2.23502],[-5.39198,2.23174],[-5.39128,2.23853],[-5.36259,2.25124],[-5.3471,2.25394],[-5.33537,2.24649],[-5.33421,2.24405],[-5.33322,2.24126],[-5.33123,2.23922],[-5.32698,2.23939],[-5.32773,2.232],[-5.36349,2.21766],[-5.37536,2.21631]]],[[[4.77876,-4.60129],[4.77278,-4.61057],[4.76967,-4.62051],[4.77989,-4.61968],[4.77925,-4.63752],[4.77651,-4.64901],[4.76986,-4.65468],[4.76201,-4.65454],[4.75608,-4.6555],[4.75423,-4.66131],[4.75885,-4.67604],[4.74841,-4.67199],[4.73693,-4.67022],[4.72604,-4.6704],[4.71751,-4.6725],[4.71955,-4.68113],[4.71321,-4.6916],[4.70957,-4.70117],[4.72028,-4.70708],[4.74406,-4.69484],[4.75884,-4.69113],[4.76639,-4.6996],[4.76485,-4.71393],[4.75868,-4.72635],[4.74855,-4.73534],[4.73562,-4.73931],[4.72894,-4.74472],[4.72415,-4.75548],[4.7173,-4.76567],[4.7045,-4.76913],[4.70812,-4.77592],[4.70952,-4.78277],[4.70921,-4.78963],[4.70672,-4.79691],[4.71566,-4.79966],[4.71847,-4.80721],[4.71588,-4.81621],[4.70884,-4.82348],[4.71407,-4.83047],[4.70275,-4.83649],[4.68343,-4.85161],[4.67056,-4.85441],[4.67114,-4.86173],[4.67862,-4.86696],[4.68168,-4.87445],[4.67978,-4.8823],[4.67329,-4.88891],[4.67378,-4.8951],[4.68199,-4.89079],[4.69307,-4.8786],[4.70192,-4.87237],[4.70029,-4.88739],[4.69577,-4.90476],[4.69047,-4.92015],[4.68587,-4.92894],[4.67404,-4.93646],[4.66412,-4.93402],[4.6442,-4.91853],[4.63194,-4.91432],[4.6083,-4.91253],[4.58826,-4.90553],[4.5944,-4.87931],[4.59781,-4.87575],[4.60456,-4.87315],[4.59156,-4.86329],[4.57276,-4.85705],[4.56135,-4.84922],[4.5702,-4.8343],[4.56972,-4.82811],[4.56122,-4.83165],[4.54046,-4.85082],[4.53487,-4.84441],[4.53635,-4.84214],[4.53721,-4.84134],[4.53804,-4.84006],[4.53937,-4.83666],[4.53155,-4.83958],[4.52869,-4.8415],[4.52461,-4.84519],[4.51892,-4.83822],[4.51052,-4.83194],[4.49101,-4.8274],[4.47236,-4.826],[4.46109,-4.82953],[4.45248,-4.82444],[4.44593,-4.81822],[4.43813,-4.81314],[4.42038,-4.8106],[4.41822,-4.8071],[4.41642,-4.80272],[4.41203,-4.79902],[4.40481,-4.7976],[4.39883,-4.79805],[4.39285,-4.79772],[4.38591,-4.79351],[4.39566,-4.78596],[4.3952,-4.77981],[4.38543,-4.77711],[4.37975,-4.77407],[4.37273,-4.77536],[4.36204,-4.77343],[4.3522,-4.76975],[4.34781,-4.76593],[4.34987,-4.74646],[4.34699,-4.73991],[4.33534,-4.73646],[4.33987,-4.72307],[4.34331,-4.70236],[4.34959,-4.68799],[4.36298,-4.69343],[4.40168,-4.67214],[4.40763,-4.66564],[4.41007,-4.65171],[4.41795,-4.64408],[4.42773,-4.63745],[4.43592,-4.62602],[4.41828,-4.62652],[4.37038,-4.61661],[4.35235,-4.61758],[4.33453,-4.61563],[4.32432,-4.60653],[4.32942,-4.58607],[4.31086,-4.58726],[4.28108,-4.60138],[4.2636,-4.6039],[4.26522,-4.60016],[4.26819,-4.59051],[4.2576,-4.59201],[4.24941,-4.59028],[4.24169,-4.58742],[4.23191,-4.58572],[4.24134,-4.58008],[4.26207,-4.57525],[4.27129,-4.56922],[4.27694,-4.56035],[4.27953,-4.54979],[4.27752,-4.54067],[4.26887,-4.53592],[4.26833,-4.52852],[4.28533,-4.52721],[4.30014,-4.52093],[4.32342,-4.50462],[4.31908,-4.49542],[4.31284,-4.48941],[4.30516,-4.48623],[4.29644,-4.48548],[4.32037,-4.47568],[4.32598,-4.46974],[4.32399,-4.46769],[4.3209,-4.46124],[4.31745,-4.4558],[4.31478,-4.45689],[4.32266,-4.44216],[4.32392,-4.44191],[4.32568,-4.43673],[4.33161,-4.42792],[4.33266,-4.42145],[4.33086,-4.42106],[4.32197,-4.4154],[4.317,-4.4067],[4.31317,-4.40104],[4.30819,-4.39786],[4.30011,-4.3965],[4.28531,-4.39904],[4.26093,-4.41484],[4.24522,-4.42098],[4.21475,-4.42511],[4.20176,-4.42921],[4.19067,-4.43785],[4.18454,-4.42531],[4.19183,-4.40808],[4.18772,-4.39479],[4.16499,-4.37151],[4.20138,-4.36527],[4.21548,-4.3582],[4.22445,-4.33994],[4.21453,-4.33411],[4.22,-4.32212],[4.23391,-4.31002],[4.24971,-4.304],[4.25338,-4.30093],[4.27251,-4.28889],[4.27649,-4.2884],[4.27673,-4.27593],[4.27188,-4.26945],[4.25965,-4.26167],[4.24478,-4.23436],[4.23894,-4.22595],[4.23108,-4.22469],[4.21076,-4.23184],[4.20619,-4.2283],[4.19979,-4.21607],[4.18574,-4.20902],[4.16851,-4.20659],[4.15336,-4.2079],[4.15626,-4.1983],[4.158,-4.19452],[4.1521,-4.19006],[4.14586,-4.18773],[4.1391,-4.18743],[4.13211,-4.1889],[4.13948,-4.1868],[4.14536,-4.18321],[4.15655,-4.17412],[4.15602,-4.16672],[4.13525,-4.16818],[4.13478,-4.16143],[4.14333,-4.15724],[4.14573,-4.14744],[4.14208,-4.13781],[4.13286,-4.13431],[4.13821,-4.12259],[4.13165,-4.11723],[4.12153,-4.11469],[4.11595,-4.11122],[4.11842,-4.10165],[4.126,-4.09905],[4.1456,-4.09864],[4.15094,-4.09533],[4.15624,-4.09057],[4.16301,-4.08614],[4.19243,-4.07827],[4.20218,-4.0731],[4.20942,-4.0668],[4.21354,-4.06439],[4.21686,-4.06501],[4.21865,-4.06386],[4.2188,-4.05584],[4.20728,-4.04812],[4.20572,-4.04657],[4.17715,-4.03494],[4.17507,-4.03127],[4.17262,-4.02485],[4.16903,-4.02121],[4.15926,-4.03101],[4.15495,-4.03091],[4.15176,-4.02683],[4.1501,-4.01978],[4.15346,-4.01589],[4.17472,-4.00103],[4.15751,-3.98875],[4.1419,-3.99116],[4.11357,-4.00536],[4.11858,-3.99757],[4.11347,-3.98943],[4.10987,-3.97878],[4.10866,-3.96756],[4.11021,-3.95785],[4.117,-3.96242],[4.12415,-3.96179],[4.13059,-3.95719],[4.13503,-3.94984],[4.14455,-3.95453],[4.14701,-3.95005],[4.14726,-3.94161],[4.14954,-3.93457],[4.15276,-3.92975],[4.15388,-3.92524],[4.15707,-3.92167],[4.18061,-3.91629],[4.18651,-3.90928],[4.18737,-3.89934],[4.18632,-3.88729],[4.19353,-3.87425],[4.19619,-3.866],[4.19245,-3.86261],[4.18325,-3.86229],[4.18112,-3.85952],[4.18249,-3.85511],[4.18668,-3.82947],[4.19541,-3.81749],[4.20764,-3.81067],[4.22135,-3.80598],[4.21641,-3.79694],[4.21891,-3.77487],[4.21293,-3.76558],[4.21239,-3.75818],[4.21837,-3.7608],[4.22041,-3.76077],[4.22139,-3.76257],[4.22393,-3.77101],[4.2356,-3.76333],[4.24371,-3.76628],[4.25082,-3.7728],[4.25967,-3.77586],[4.27095,-3.77108],[4.27899,-3.76073],[4.28436,-3.74699],[4.28725,-3.7323],[4.2813,-3.7259],[4.30885,-3.72224],[4.35375,-3.69449],[4.43467,-3.67072],[4.45703,-3.65697],[4.45776,-3.6375],[4.49412,-3.59039],[4.50153,-3.58371],[4.51863,-3.57937],[4.53607,-3.57785],[4.5442,-3.57957],[4.55079,-3.57849],[4.58964,-3.58626],[4.60574,-3.59361],[4.61116,-3.59823],[4.61623,-3.6045],[4.62076,-3.6122],[4.62906,-3.63096],[4.63408,-3.63056],[4.65671,-3.58344],[4.66514,-3.5537],[4.6564,-3.53255],[4.66072,-3.51303],[4.65526,-3.49596],[4.64393,-3.48055],[4.6309,-3.46624],[4.64871,-3.43694],[4.64789,-3.42833],[4.64236,-3.41925],[4.64157,-3.41085],[4.64377,-3.4009],[4.6481,-3.39371],[4.66367,-3.37422],[4.66078,-3.36953],[4.65976,-3.36664],[4.66032,-3.36244],[4.66202,-3.35384],[4.65388,-3.3464],[4.64784,-3.33101],[4.64524,-3.31363],[4.64776,-3.30036],[4.65909,-3.29163],[4.68922,-3.28907],[4.70196,-3.2823],[4.7127,-3.2951],[4.71971,-3.30027],[4.73463,-3.30699],[4.73524,-3.31439],[4.72971,-3.3229],[4.72933,-3.33368],[4.73384,-3.34479],[4.74293,-3.3541],[4.74113,-3.37302],[4.76241,-3.46243],[4.76369,-3.49245],[4.74756,-3.58725],[4.74932,-3.59927],[4.74898,-3.61343],[4.75206,-3.64216],[4.75131,-3.64479],[4.7493,-3.64744],[4.7476,-3.65091],[4.74762,-3.65559],[4.74964,-3.65811],[4.75322,-3.65998],[4.75673,-3.66083],[4.75817,-3.66088],[4.76088,-3.66965],[4.76314,-3.67509],[4.76339,-3.68032],[4.76046,-3.6887],[4.76678,-3.69299],[4.76984,-3.69941],[4.77245,-3.70693],[4.77766,-3.71457],[4.78391,-3.71878],[4.80454,-3.72603],[4.80131,-3.71181],[4.79753,-3.70548],[4.78426,-3.68056],[4.80818,-3.71026],[4.81662,-3.72699],[4.82126,-3.74578],[4.82443,-3.80362],[4.82938,-3.8333],[4.84037,-3.85351],[4.837,-3.86686],[4.83485,-3.88092],[4.83416,-3.89666],[4.83535,-3.91537],[4.84054,-3.9355],[4.85741,-3.97302],[4.86211,-3.99233],[4.867,-4.11643],[4.87439,-4.13942],[4.87308,-4.14784],[4.87308,-4.16526],[4.8721,-4.17316],[4.86753,-4.18258],[4.84904,-4.203],[4.84213,-4.21647],[4.83272,-4.24171],[4.7878,-4.31963],[4.77746,-4.33179],[4.77409,-4.34134],[4.77673,-4.37666],[4.77612,-4.43371],[4.77599,-4.4462],[4.788,-4.51349],[4.79291,-4.58639],[4.79106,-4.59151],[4.78566,-4.59439],[4.77876,-4.60129]]],[[[4.77433,-3.6749],[4.75712,-3.64798],[4.77814,-3.67357],[4.77431,-3.67389],[4.77433,-3.6749]]],[[[2.34778,-3.45594],[2.33859,-3.45327],[2.32068,-3.44453],[2.31939,-3.43918],[2.32686,-3.43498],[2.34729,-3.43513],[2.35346,-3.43127],[2.35584,-3.42808],[2.35819,-3.42726],[2.36024,-3.42766],[2.36926,-3.42667],[2.37019,-3.41982],[2.37507,-3.41639],[2.38209,-3.42443],[2.38357,-3.43901],[2.36777,-3.44692],[2.3579,-3.45228],[2.34778,-3.45594]]]]}}]}